{"name": "Douglas Daly School", "region": "Top End", "physicalAddress": {"description": "Jungawa Rd", "state": "NT", "postCode": "Douglas-Daly", "displayAddress": "Jungawa Rd, Douglas-Daly, NT"}, "postalAddress": {"description": "PMB 46", "state": "NT", "postCode": "via Winnellie, 0822", "displayAddress": "PMB 46, via Winnellie, 0822, NT"}, "ntgGeographicDefinition": "Remote", "preSchool": true, "primarySchool": true, "middleSchool": false, "seniorSchool": false, "telephoneNumber": "(08) 8978 2836"}
{"name": "Centralian Middle School", "region": "Central", "physicalAddress": {"description": "56 Milner Rd", "state": "NT", "postCode": "Alice Springs, 0870", "displayAddress": "56 Milner Rd, Alice Springs, 0870, NT"}, "postalAddress": {"description": "PO Box 1771", "state": "NT", "postCode": "ALICE SPRINGS, 0871", "displayAddress": "PO Box 1771, ALICE SPRINGS, 0871, NT"}, "ntgGeographicDefinition": "Remote", "preSchool": false, "primarySchool": false, "middleSchool": true, "seniorSchool": false, "telephoneNumber": "(08) 895 52333"}
{"name": "Centralian Senior College", "region": "Central", "physicalAddress": {"description": "10 Grevillea Drive", "state": "NT", "postCode": "Alice Springs, 0870", "displayAddress": "10 Grevillea Drive, Alice Springs, 0870, NT"}, "postalAddress": {"description": "PO Box 4856", "state": "NT", "postCode": "ALICE SPRINGS, 0871", "displayAddress": "PO Box 4856, ALICE SPRINGS, 0871, NT"}, "ntgGeographicDefinition": "Remote", "preSchool": false, "primarySchool": false, "middleSchool": false, "seniorSchool": true, "telephoneNumber": "(08) 895 85000"}
{"name": "Clyde Fenton Primary School", "region": "Big Rivers", "physicalAddress": {"description": "101 Giles St", "state": "NT", "postCode": "Katherine, 0850", "displayAddress": "101 Giles St, Katherine, 0850, NT"}, "postalAddress": {"description": "PO Box 421", "state": "NT", "postCode": "KATHERINE, 0851", "displayAddress": "PO Box 421, KATHERINE, 0851, NT"}, "ntgGeographicDefinition": "Remote", "preSchool": true, "primarySchool": true, "middleSchool": false, "seniorSchool": false, "telephoneNumber": "(08) 897 33844"}
{"name": "Darwin Languages Centre", "region": "Darwin", "physicalAddress": {"description": "1 Nemarluk Dr, Ludmilla", "state": "NT", "postCode": "NT", "displayAddress": "1 Nemarluk Dr, Ludmilla, NT, NT"}, "postalAddress": {"description": "P O Box 822", "state": "NT", "postCode": "Nightcliff, 0814", "displayAddress": "P O Box 822, Nightcliff, 0814, NT"}, "ntgGeographicDefinition": "Outer Regional", "preSchool": false, "primarySchool": false, "middleSchool": false, "seniorSchool": false, "telephoneNumber": "(08) 899 77000"}
{"name": "Clyde Fenton Pre School", "region": "Big Rivers", "physicalAddress": {"description": "101 Giles St", "state": "NT", "postCode": "Katherine", "displayAddress": "101 Giles St, Katherine, NT"}, "postalAddress": {"description": null, "state": null, "postCode": ", ", "displayAddress": ", , , "}, "ntgGeographicDefinition": null, "preSchool": true, "primarySchool": false, "middleSchool": false, "seniorSchool": false, "telephoneNumber": "(08) 897 33855"}
{"name": "Dhupuma Barker", "region": "East Arnhem", "physicalAddress": {"description": "116 Gunyangara Rd", "state": "NT", "postCode": "Gunyangara, 0880", "displayAddress": "116 Gunyangara Rd, Gunyangara, 0880, NT"}, "postalAddress": {"description": "PO Box 394", "state": "NT", "postCode": "Nhulunbuy, 0881", "displayAddress": "PO Box 394, Nhulunbuy, 0881, NT"}, "ntgGeographicDefinition": "Outer Regional Australia", "preSchool": true, "primarySchool": true, "middleSchool": false, "seniorSchool": false, "telephoneNumber": "(08) 8438 7201"}
{"name": "Darwin High School", "region": "Darwin", "physicalAddress": {"description": "10 Atkins Dr", "state": "NT", "postCode": "The Gardens, 0820", "displayAddress": "10 Atkins Dr, The Gardens, 0820, NT"}, "postalAddress": {"description": "Bullocky Point", "state": "NT", "postCode": "DARWIN, 0820", "displayAddress": "Bullocky Point, DARWIN, 0820, NT"}, "ntgGeographicDefinition": "Outer Regional", "preSchool": false, "primarySchool": false, "middleSchool": false, "seniorSchool": true, "telephoneNumber": "(08) 899 91222"}
{"name": "Casuarina Street Pre School", "region": "Big Rivers", "physicalAddress": {"description": "Casuarina St", "state": "NT", "postCode": "Katherine East", "displayAddress": "Casuarina St, Katherine East, NT"}, "postalAddress": {"description": null, "state": null, "postCode": ", ", "displayAddress": ", , , "}, "ntgGeographicDefinition": null, "preSchool": true, "primarySchool": false, "middleSchool": false, "seniorSchool": false, "telephoneNumber": "(08) 897 33800"}
{"name": "Casuarina Street Primary School", "region": "Big Rivers", "physicalAddress": {"description": "Casuarina St", "state": "NT", "postCode": "Katherine East, 0850", "displayAddress": "Casuarina St, Katherine East, 0850, NT"}, "postalAddress": {"description": "PO Box 1046", "state": "NT", "postCode": "KATHERINE, 0851", "displayAddress": "PO Box 1046, KATHERINE, 0851, NT"}, "ntgGeographicDefinition": "Remote", "preSchool": true, "primarySchool": true, "middleSchool": false, "seniorSchool": false, "telephoneNumber": "(08) 897 33800"}
{"name": "Casuarina Senior College", "region": "Darwin", "physicalAddress": {"description": "61 Parer Dr", "state": "NT", "postCode": "Moil, 0810", "displayAddress": "61 Parer Dr, Moil, 0810, NT"}, "postalAddress": {"description": "PO Box  40196", "state": "NT", "postCode": "CASUARINA, 0811", "displayAddress": "PO Box  40196, CASUARINA, 0811, NT"}, "ntgGeographicDefinition": "Outer Regional", "preSchool": false, "primarySchool": false, "middleSchool": false, "seniorSchool": true, "telephoneNumber": "(08) 898 37300"}
{"name": "Canteen Creek School", "region": "Barkly", "physicalAddress": {"description": "N/a", "state": "NT", "postCode": "Canteen Creek", "displayAddress": "N/a, Canteen Creek, NT"}, "postalAddress": {"description": "PMB 105", "state": "NT", "postCode": "via Alice Springs, 0872", "displayAddress": "PMB 105, via Alice Springs, 0872, NT"}, "ntgGeographicDefinition": "Very Remote", "preSchool": true, "primarySchool": true, "middleSchool": true, "seniorSchool": true, "telephoneNumber": "(08) 8964 1505"}
{"name": "Callistemon House", "region": "Big Rivers", "physicalAddress": {"description": "80 Callistemon Dr", "state": "NT", "postCode": "Katherine East, 0850", "displayAddress": "80 Callistemon Dr, Katherine East, 0850, NT"}, "postalAddress": {"description": "PO Box 1971", "state": "NT", "postCode": "Katherine East, 0851", "displayAddress": "PO Box 1971, Katherine East, 0851, NT"}, "ntgGeographicDefinition": "Remote Australia", "preSchool": false, "primarySchool": false, "middleSchool": false, "seniorSchool": false, "telephoneNumber": "(08) 8972 3212"}
{"name": "Bulman School", "region": "Big Rivers", "physicalAddress": {"description": "N/A", "state": "NT", "postCode": "Bulman", "displayAddress": "N/A, Bulman, NT"}, "postalAddress": {"description": "PMB 13", "state": "NT", "postCode": "Katherine, 0851", "displayAddress": "PMB 13, Katherine, 0851, NT"}, "ntgGeographicDefinition": "Very Remote", "preSchool": true, "primarySchool": true, "middleSchool": true, "seniorSchool": true, "telephoneNumber": "(08) 8975 4707"}
{"name": "Bulla Camp School", "region": "Big Rivers", "physicalAddress": {"description": "N/A", "state": "NT", "postCode": "Bulla", "displayAddress": "N/A, Bulla, NT"}, "postalAddress": {"description": "PMB 89", "state": "NT", "postCode": "Katherine, 0851", "displayAddress": "PMB 89, Katherine, 0851, NT"}, "ntgGeographicDefinition": "Very Remote", "preSchool": true, "primarySchool": true, "middleSchool": true, "seniorSchool": false, "telephoneNumber": "(08) 9167 8957"}
{"name": "Zuccoli Primary School", "region": "Top End", "physicalAddress": {"description": "130 Zuccoli Parade", "state": "NT", "postCode": "Zuccoli, 0830", "displayAddress": "130 Zuccoli Parade, Zuccoli, 0830, NT"}, "postalAddress": {"description": "PO Box 2222", "state": "NT", "postCode": "PALMERSTON, 0832", "displayAddress": "PO Box 2222, PALMERSTON, 0832, NT"}, "ntgGeographicDefinition": "Outer Regional", "preSchool": false, "primarySchool": true, "middleSchool": false, "seniorSchool": false, "telephoneNumber": "(08) 792 30222"}
{"name": "Darwin Middle School", "region": "Darwin", "physicalAddress": {"description": "Atkins Drive, The Gardens, NT 0820", "state": "NT", "postCode": "not available", "displayAddress": "Atkins Drive, The Gardens, NT 0820, not available, NT"}, "postalAddress": {"description": "PO Box 2257", "state": "NT", "postCode": "PARAP, 0804", "displayAddress": "PO Box 2257, PARAP, 0804, NT"}, "ntgGeographicDefinition": "Outer Regional", "preSchool": false, "primarySchool": false, "middleSchool": true, "seniorSchool": false, "telephoneNumber": "(08) 894 25200"}
{"name": "Yuendumu Pre School", "region": "Central", "physicalAddress": {"description": "Conniston Road", "state": "NT", "postCode": "Yuendumu", "displayAddress": "Conniston Road, Yuendumu, NT"}, "postalAddress": {"description": null, "state": null, "postCode": ", ", "displayAddress": ", , , "}, "ntgGeographicDefinition": null, "preSchool": false, "primarySchool": false, "middleSchool": false, "seniorSchool": false, "telephoneNumber": "(08) 8956 4011"}
{"name": "Yuendumu School", "region": "Central", "physicalAddress": {"description": "Conniston Rd", "state": "NT", "postCode": "Yuendumu", "displayAddress": "Conniston Rd, Yuendumu, NT"}, "postalAddress": {"description": "C/ - Post Office", "state": "NT", "postCode": "Yuendumu, 0870", "displayAddress": "C/ - Post Office, Yuendumu, 0870, NT"}, "ntgGeographicDefinition": "Very Remote", "preSchool": true, "primarySchool": true, "middleSchool": true, "seniorSchool": true, "telephoneNumber": "(08) 8956 4011"}
{"name": "Yirrkala School", "region": "East Arnhem", "physicalAddress": {"description": "Rankine Road", "state": "NT", "postCode": "Yirrkala", "displayAddress": "Rankine Road, Yirrkala, NT"}, "postalAddress": {"description": "PO Box 896", "state": "NT", "postCode": "Nhulunbuy, 0881", "displayAddress": "PO Box 896, Nhulunbuy, 0881, NT"}, "ntgGeographicDefinition": "Very Remote", "preSchool": true, "primarySchool": true, "middleSchool": true, "seniorSchool": true, "telephoneNumber": "(08) 898 71988"}
{"name": "Yirrkala Pre School", "region": "East Arnhem", "physicalAddress": {"description": "Rankine Road", "state": "NT", "postCode": "Yirrkala", "displayAddress": "Rankine Road, Yirrkala, NT"}, "postalAddress": {"description": null, "state": null, "postCode": ", ", "displayAddress": ", , , "}, "ntgGeographicDefinition": null, "preSchool": false, "primarySchool": false, "middleSchool": false, "seniorSchool": false, "telephoneNumber": "(08) 898 71988"}
{"name": "Yirara College", "region": "Central", "physicalAddress": {"description": "470 South Stuart Highway", "state": "NT", "postCode": "Alice Springs", "displayAddress": "470 South Stuart Highway, Alice Springs, NT"}, "postalAddress": {"description": "PMB 51", "state": "NT", "postCode": "Alice Springs, 0871", "displayAddress": "PMB 51, Alice Springs, 0871, NT"}, "ntgGeographicDefinition": "Remote", "preSchool": false, "primarySchool": false, "middleSchool": true, "seniorSchool": true, "telephoneNumber": "(08) 8950 5644"}
{"name": "Yulara School", "region": "Central", "physicalAddress": {"description": "21 Winmati St", "state": "NT", "postCode": "Yulara, 0872", "displayAddress": "21 Winmati St, Yulara, 0872, NT"}, "postalAddress": {"description": "PO Box 146", "state": "NT", "postCode": "Yulara, 0872", "displayAddress": "PO Box 146, Yulara, 0872, NT"}, "ntgGeographicDefinition": "Very Remote", "preSchool": true, "primarySchool": true, "middleSchool": true, "seniorSchool": true, "telephoneNumber": "(08) 8956 2014"}
{"name": "Yipirinya School", "region": "Central", "physicalAddress": {"description": "Lovegrove Dr", "state": "NT", "postCode": "Alice Springs", "displayAddress": "Lovegrove Dr, Alice Springs, NT"}, "postalAddress": {"description": "C/- Yipirinya School Council Inc, PO Box 2363", "state": "NT", "postCode": "Alice Springs, 0871", "displayAddress": "C/- Yipirinya School Council Inc, PO Box 2363, Alice Springs, 0871, NT"}, "ntgGeographicDefinition": "Remote", "preSchool": true, "primarySchool": true, "middleSchool": true, "seniorSchool": true, "telephoneNumber": "(08) 8952 5633"}
{"name": "Wurankuwu Homeland Learning Centre", "region": "Top End", "physicalAddress": {"description": "Community ID 868", "state": "NT", "postCode": "Wurankuwu", "displayAddress": "Community ID 868, Wurankuwu, NT"}, "postalAddress": {"description": "Nguiu", "state": "NT", "postCode": "Bathurst Island, 0822", "displayAddress": "Nguiu, Bathurst Island, 0822, NT"}, "ntgGeographicDefinition": "Very Remote", "preSchool": true, "primarySchool": true, "middleSchool": false, "seniorSchool": false, "telephoneNumber": "(08) 8978 3986"}
{"name": "Xavier CEC", "region": "Top End", "physicalAddress": {"description": "Kerinauia Hwy", "state": "NT", "postCode": "Nguiu", "displayAddress": "Kerinauia Hwy, Nguiu, NT"}, "postalAddress": {"description": "PMB 139,", "state": "NT", "postCode": "via Winnellie, 0822", "displayAddress": "PMB 139,, via Winnellie, 0822, NT"}, "ntgGeographicDefinition": "Very Remote", "preSchool": false, "primarySchool": false, "middleSchool": true, "seniorSchool": true, "telephoneNumber": "(08) 8978 3970"}
{"name": "Wulagi Primary School", "region": "Darwin", "physicalAddress": {"description": "24 Brolga St", "state": "NT", "postCode": "Wulagi, 0812", "displayAddress": "24 Brolga St, Wulagi, 0812, NT"}, "postalAddress": {"description": "24 Brolga St", "state": "NT", "postCode": "WULAGI, 0812", "displayAddress": "24 Brolga St, WULAGI, 0812, NT"}, "ntgGeographicDefinition": "Outer Regional", "preSchool": true, "primarySchool": true, "middleSchool": false, "seniorSchool": false, "telephoneNumber": "(08) 898 37800"}
{"name": "Wulagi Pre School", "region": "Darwin", "physicalAddress": {"description": "24 Brolga St", "state": "NT", "postCode": "Wulagi", "displayAddress": "24 Brolga St, Wulagi, NT"}, "postalAddress": {"description": null, "state": null, "postCode": ", ", "displayAddress": ", , , "}, "ntgGeographicDefinition": null, "preSchool": true, "primarySchool": false, "middleSchool": false, "seniorSchool": false, "telephoneNumber": "(08) 898 37818"}
{"name": "Wugularr School", "region": "Big Rivers", "physicalAddress": {"description": "Laiwanga St", "state": "NT", "postCode": "Wugularr", "displayAddress": "Laiwanga St, Wugularr, NT"}, "postalAddress": {"description": "PMB 6", "state": "NT", "postCode": "Katherine, 0851", "displayAddress": "PMB 6, Katherine, 0851, NT"}, "ntgGeographicDefinition": "Very Remote", "preSchool": true, "primarySchool": true, "middleSchool": true, "seniorSchool": true, "telephoneNumber": "(08) 8975 4529"}
{"name": "Yarralin School", "region": "Big Rivers", "physicalAddress": {"description": "N/A", "state": "NT", "postCode": "Yarralin", "displayAddress": "N/A, Yarralin, NT"}, "postalAddress": {"description": "PMB 34", "state": "NT", "postCode": "via Katherine, 0851", "displayAddress": "PMB 34, via Katherine, 0851, NT"}, "ntgGeographicDefinition": "Very Remote", "preSchool": true, "primarySchool": true, "middleSchool": true, "seniorSchool": false, "telephoneNumber": "(08) 8975 0809"}
{"name": "Woolaning School", "region": "Top End", "physicalAddress": {"description": "Litchfield Park Rd", "state": "NT", "postCode": "Litchfield Park", "displayAddress": "Litchfield Park Rd, Litchfield Park, NT"}, "postalAddress": {"description": "PO Box 3261", "state": "NT", "postCode": "Palmerston, 0831", "displayAddress": "PO Box 3261, Palmerston, 0831, NT"}, "ntgGeographicDefinition": "Remote", "preSchool": false, "primarySchool": true, "middleSchool": false, "seniorSchool": false, "telephoneNumber": "(08) 8978 2334"}
{"name": "Woolianna School", "region": "Top End", "physicalAddress": {"description": "Wooliana Rd", "state": "NT", "postCode": "Daly River", "displayAddress": "Wooliana Rd, Daly River, NT"}, "postalAddress": {"description": "PMB 194", "state": "NT", "postCode": "Winnellie, 0821", "displayAddress": "PMB 194, Winnellie, 0821, NT"}, "ntgGeographicDefinition": "Very Remote", "preSchool": true, "primarySchool": true, "middleSchool": true, "seniorSchool": false, "telephoneNumber": "(08) 8978 2984"}
{"name": "Woodroffe Pre School", "region": "Top End", "physicalAddress": {"description": "55 Woodroffe Ave", "state": "NT", "postCode": "Woodroffe", "displayAddress": "55 Woodroffe Ave, Woodroffe, NT"}, "postalAddress": {"description": null, "state": null, "postCode": ", ", "displayAddress": ", , , "}, "ntgGeographicDefinition": null, "preSchool": true, "primarySchool": false, "middleSchool": false, "seniorSchool": false, "telephoneNumber": "(08) 8983 7611"}
{"name": "Woodroffe Primary School", "region": "Top End", "physicalAddress": {"description": "55 Woodroffe Ave", "state": "NT", "postCode": "Woodroffe, 0830", "displayAddress": "55 Woodroffe Ave, Woodroffe, 0830, NT"}, "postalAddress": {"description": "PO Box 2021", "state": "NT", "postCode": "PALMERSTON, 0831", "displayAddress": "PO Box 2021, PALMERSTON, 0831, NT"}, "ntgGeographicDefinition": "Outer Regional", "preSchool": true, "primarySchool": true, "middleSchool": false, "seniorSchool": false, "telephoneNumber": "(08) 898 37600"}
{"name": "Willowra School", "region": "Central", "physicalAddress": {"description": "N/A", "state": "NT", "postCode": "Willowra", "displayAddress": "N/A, Willowra, NT"}, "postalAddress": {"description": "PMB 102", "state": "NT", "postCode": "via Alice Springs, 0872", "displayAddress": "PMB 102, via Alice Springs, 0872, NT"}, "ntgGeographicDefinition": "Very Remote", "preSchool": false, "primarySchool": true, "middleSchool": true, "seniorSchool": false, "telephoneNumber": "(08) 8956 8408"}
{"name": "Watiyawanu School", "region": "Central", "physicalAddress": {"description": "N/A", "state": "NT", "postCode": "Mt Liebig", "displayAddress": "N/A, Mt Liebig, NT"}, "postalAddress": {"description": "PMB 111", "state": "NT", "postCode": "via Alice Springs, 0872", "displayAddress": "PMB 111, via Alice Springs, 0872, NT"}, "ntgGeographicDefinition": "Very Remote", "preSchool": true, "primarySchool": true, "middleSchool": true, "seniorSchool": false, "telephoneNumber": "(08) 8956 8555"}
{"name": "Watarrka School", "region": "Central", "physicalAddress": {"description": "n/a", "state": "NT", "postCode": "Lilla Community", "displayAddress": "n/a, Lilla Community, NT"}, "postalAddress": {"description": "Education Stores, Shed 9, 66A Smith St", "state": "NT", "postCode": "Alice Springs, 0870", "displayAddress": "Education Stores, Shed 9, 66A Smith St, Alice Springs, 0870, NT"}, "ntgGeographicDefinition": "Very Remote", "preSchool": false, "primarySchool": true, "middleSchool": true, "seniorSchool": false, "telephoneNumber": "(08) 8956 7758"}
{"name": "Wanguri Primary School", "region": "Darwin", "physicalAddress": {"description": "46 Gsell St", "state": "NT", "postCode": "Wanguri, 0810", "displayAddress": "46 Gsell St, Wanguri, 0810, NT"}, "postalAddress": {"description": "PO Box 40519", "state": "NT", "postCode": "CASUARINA, 0811", "displayAddress": "PO Box 40519, CASUARINA, 0811, NT"}, "ntgGeographicDefinition": "Outer Regional", "preSchool": true, "primarySchool": true, "middleSchool": false, "seniorSchool": false, "telephoneNumber": "(08) 8927 1655"}
{"name": "Walungurru School", "region": "Central", "physicalAddress": {"description": "N/A", "state": "NT", "postCode": "Walungurru (Kintore)", "displayAddress": "N/A, Walungurru (Kintore), NT"}, "postalAddress": {"description": "PMB 14", "state": "NT", "postCode": "via Alice Springs, 0872", "displayAddress": "PMB 14, via Alice Springs, 0872, NT"}, "ntgGeographicDefinition": "Very Remote", "preSchool": true, "primarySchool": true, "middleSchool": false, "seniorSchool": false, "telephoneNumber": "(08)  8964 6056"}
{"name": "Warruwi School", "region": "Top End", "physicalAddress": {"description": "N/A", "state": "NT", "postCode": "Warruwi (Goulburn Island), 0822", "displayAddress": "N/A, Warruwi (Goulburn Island), 0822, NT"}, "postalAddress": {"description": "PMB 90", "state": "NT", "postCode": "via WINNELLIE, 0821", "displayAddress": "PMB 90, via WINNELLIE, 0821, NT"}, "ntgGeographicDefinition": "Very Remote", "preSchool": true, "primarySchool": true, "middleSchool": true, "seniorSchool": true, "telephoneNumber": "(08) 8979 0222"}
{"name": "Wallace Rockhole School", "region": "Central", "physicalAddress": {"description": "N/A", "state": "NT", "postCode": "Wallace Rockhole", "displayAddress": "N/A, Wallace Rockhole, NT"}, "postalAddress": {"description": "PO Box 2256", "state": "NT", "postCode": "Alice Springs, 0871", "displayAddress": "PO Box 2256, Alice Springs, 0871, NT"}, "ntgGeographicDefinition": "Very Remote", "preSchool": true, "primarySchool": true, "middleSchool": false, "seniorSchool": false, "telephoneNumber": "(08) 8956 7330"}
{"name": "Wagaman Primary School", "region": "Darwin", "physicalAddress": {"description": "35 Wagaman Tce", "state": "NT", "postCode": "Wagaman, 0810", "displayAddress": "35 Wagaman Tce, Wagaman, 0810, NT"}, "postalAddress": {"description": "PO Box 40019", "state": "NT", "postCode": "CASUARINA, 0811", "displayAddress": "PO Box 40019, CASUARINA, 0811, NT"}, "ntgGeographicDefinition": "Outer Regional", "preSchool": true, "primarySchool": true, "middleSchool": false, "seniorSchool": false, "telephoneNumber": "(08) 8922 6011"}
{"name": "Wagaman Pre School", "region": "Darwin", "physicalAddress": {"description": "35 Wagaman Tce", "state": "NT", "postCode": "Wagaman", "displayAddress": "35 Wagaman Tce, Wagaman, NT"}, "postalAddress": {"description": null, "state": null, "postCode": ", ", "displayAddress": ", , , "}, "ntgGeographicDefinition": null, "preSchool": true, "primarySchool": false, "middleSchool": false, "seniorSchool": false, "telephoneNumber": "(08) 8922 6011"}
{"name": "Urapunga School", "region": "Big Rivers", "physicalAddress": {"description": "Blyth St", "state": "NT", "postCode": "Rittarangu (Urapunga)", "displayAddress": "Blyth St, Rittarangu (Urapunga), NT"}, "postalAddress": {"description": "PMB 12", "state": "NT", "postCode": "via Katherine, 0852", "displayAddress": "PMB 12, via Katherine, 0852, NT"}, "ntgGeographicDefinition": "Very Remote", "preSchool": true, "primarySchool": true, "middleSchool": true, "seniorSchool": true, "telephoneNumber": "(08) 8975 4645"}
{"name": "Wanguri Pre School", "region": "Darwin", "physicalAddress": {"description": "46 Gsell St", "state": "NT", "postCode": "Wanguri", "displayAddress": "46 Gsell St, Wanguri, NT"}, "postalAddress": {"description": null, "state": null, "postCode": ", ", "displayAddress": ", , , "}, "ntgGeographicDefinition": null, "preSchool": true, "primarySchool": false, "middleSchool": false, "seniorSchool": false, "telephoneNumber": "(08) 8927 1655"}
{"name": "Top End School of Flexible Learning", "region": "Darwin", "physicalAddress": {"description": "1 Malak Place", "state": "NT", "postCode": "Malak, 0812", "displayAddress": "1 Malak Place, Malak, 0812, NT"}, "postalAddress": {"description": "PO Box 703", "state": "NT", "postCode": "Karama, 0812", "displayAddress": "PO Box 703, Karama, 0812, NT"}, "ntgGeographicDefinition": "Outer Regional", "preSchool": false, "primarySchool": false, "middleSchool": false, "seniorSchool": false, "telephoneNumber": "(08) 899 77199"}
{"name": "Tivendale School", "region": "Darwin", "physicalAddress": {"description": "Tivendale Road", "state": "NT", "postCode": "Berrimah, 0828", "displayAddress": "Tivendale Road, Berrimah, 0828, NT"}, "postalAddress": {"description": "PO Box 703", "state": "NT", "postCode": "Karama, 0812", "displayAddress": "PO Box 703, Karama, 0812, NT"}, "ntgGeographicDefinition": "Outer Regional Australia", "preSchool": false, "primarySchool": false, "middleSchool": false, "seniorSchool": false, "telephoneNumber": "(08) 899 95910"}
{"name": "Titjikala School", "region": "Central", "physicalAddress": {"description": "N/A", "state": "NT", "postCode": "Titjikala (Maryvale)", "displayAddress": "N/A, Titjikala (Maryvale), NT"}, "postalAddress": {"description": "PMB 130", "state": "NT", "postCode": "via Alice Springs, 0872", "displayAddress": "PMB 130, via Alice Springs, 0872, NT"}, "ntgGeographicDefinition": "Remote", "preSchool": true, "primarySchool": true, "middleSchool": false, "seniorSchool": false, "telephoneNumber": "(08) 8956 0927"}
{"name": "Tipperary Station School", "region": "Top End", "physicalAddress": {"description": "Daly River Road", "state": "NT", "postCode": "Tipperary", "displayAddress": "Daly River Road, Tipperary, NT"}, "postalAddress": {"description": "PMB 214", "state": "NT", "postCode": "via Winnellie, 0822", "displayAddress": "PMB 214, via Winnellie, 0822, NT"}, "ntgGeographicDefinition": "Remote", "preSchool": false, "primarySchool": true, "middleSchool": true, "seniorSchool": false, "telephoneNumber": "(08) 8978 2765"}
{"name": "Timber Creek School", "region": "Big Rivers", "physicalAddress": {"description": "62 Wilson St", "state": "NT", "postCode": "Timber Creek", "displayAddress": "62 Wilson St, Timber Creek, NT"}, "postalAddress": {"description": "PMB 115", "state": "NT", "postCode": "via Katherine, 0851", "displayAddress": "PMB 115, via Katherine, 0851, NT"}, "ntgGeographicDefinition": "Very Remote", "preSchool": true, "primarySchool": true, "middleSchool": true, "seniorSchool": false, "telephoneNumber": "(08) 8975 0714"}
{"name": "Ti Tree School", "region": "Central", "physicalAddress": {"description": "26 Palmer St", "state": "NT", "postCode": "Ti-Tree", "displayAddress": "26 Palmer St, Ti-Tree, NT"}, "postalAddress": {"description": "Locked Bag 257,", "state": "NT", "postCode": "Ti Tree, via Alice Springs, 0872", "displayAddress": "Locked Bag 257,, Ti Tree, via Alice Springs, 0872, NT"}, "ntgGeographicDefinition": "Very Remote", "preSchool": true, "primarySchool": true, "middleSchool": true, "seniorSchool": false, "telephoneNumber": "(08) 8956 9743"}
{"name": "Tiwi College", "region": "Top End", "physicalAddress": {"description": "Pickertaramoor Melville Island", "state": "NT", "postCode": null, "displayAddress": "Pickertaramoor Melville Island, , NT"}, "postalAddress": {"description": "LMB 127", "state": "NT", "postCode": "Winnellie, 0822", "displayAddress": "LMB 127, Winnellie, 0822, NT"}, "ntgGeographicDefinition": "Very Remote", "preSchool": false, "primarySchool": false, "middleSchool": false, "seniorSchool": false, "telephoneNumber": "08 89709024"}
{"name": "Tennant Creek Pre School", "region": "Barkly", "physicalAddress": {"description": "31 Paterson St", "state": "NT", "postCode": "Tennant Creek", "displayAddress": "31 Paterson St, Tennant Creek, NT"}, "postalAddress": {"description": null, "state": null, "postCode": ", ", "displayAddress": ", , , "}, "ntgGeographicDefinition": null, "preSchool": true, "primarySchool": false, "middleSchool": false, "seniorSchool": false, "telephoneNumber": "(08) 8962 2110"}
{"name": "Tennant Creek Primary School", "region": "Barkly", "physicalAddress": {"description": "31 Paterson St", "state": "NT", "postCode": "Tennant Creek, 0860", "displayAddress": "31 Paterson St, Tennant Creek, 0860, NT"}, "postalAddress": {"description": "PO Box 506", "state": "NT", "postCode": "Tennant Creek, 0861", "displayAddress": "PO Box 506, Tennant Creek, 0861, NT"}, "ntgGeographicDefinition": "Very Remote", "preSchool": true, "primarySchool": true, "middleSchool": false, "seniorSchool": false, "telephoneNumber": "(08) 896 32424"}
{"name": "Tennant Creek High School", "region": "Barkly", "physicalAddress": {"description": "38 Stuart St", "state": "NT", "postCode": "Tennant Creek", "displayAddress": "38 Stuart St, Tennant Creek, NT"}, "postalAddress": {"description": "PO Box 546", "state": "NT", "postCode": "Tennant Creek, 0861", "displayAddress": "PO Box 546, Tennant Creek, 0861, NT"}, "ntgGeographicDefinition": "Very Remote", "preSchool": false, "primarySchool": false, "middleSchool": true, "seniorSchool": true, "telephoneNumber": "(08) 8962 2102"}
{"name": "Taminmin College", "region": "Top End", "physicalAddress": {"description": "70 Challoner Cct", "state": "NT", "postCode": "Humpty Doo", "displayAddress": "70 Challoner Cct, Humpty Doo, NT"}, "postalAddress": {"description": "PO Box 21", "state": "NT", "postCode": "HUMPTY DOO, 0836", "displayAddress": "PO Box 21, HUMPTY DOO, 0836, NT"}, "ntgGeographicDefinition": "Outer Regional", "preSchool": false, "primarySchool": false, "middleSchool": true, "seniorSchool": true, "telephoneNumber": "(08) 898 37000"}
{"name": "Stuart Park Primary School", "region": "Darwin", "physicalAddress": {"description": "8 Nudl St", "state": "NT", "postCode": "Stuart Park, 0820", "displayAddress": "8 Nudl St, Stuart Park, 0820, NT"}, "postalAddress": {"description": "PO Box 37421", "state": "NT", "postCode": "Winnellie, 0831", "displayAddress": "PO Box 37421, Winnellie, 0831, NT"}, "ntgGeographicDefinition": "Outer Regional", "preSchool": true, "primarySchool": true, "middleSchool": false, "seniorSchool": false, "telephoneNumber": "(08) 899 77333"}
{"name": "Stuart Park Pre School", "region": "Darwin", "physicalAddress": {"description": "8 Nudl St", "state": "NT", "postCode": "Stuart Park", "displayAddress": "8 Nudl St, Stuart Park, NT"}, "postalAddress": {"description": null, "state": null, "postCode": ", ", "displayAddress": ", , , "}, "ntgGeographicDefinition": null, "preSchool": true, "primarySchool": false, "middleSchool": false, "seniorSchool": false, "telephoneNumber": "(08) 899 77322"}
{"name": "Stirling School", "region": "Central", "physicalAddress": {"description": "N/A", "state": "NT", "postCode": "Wilora (Stirling Station) 0872", "displayAddress": "N/A, Wilora (Stirling Station) 0872, NT"}, "postalAddress": {"description": "c/- Ti Tree Post Office", "state": "NT", "postCode": "Ti Tree, 0872", "displayAddress": "c/- Ti Tree Post Office, Ti Tree, 0872, NT"}, "ntgGeographicDefinition": "Very Remote", "preSchool": true, "primarySchool": true, "middleSchool": true, "seniorSchool": false, "telephoneNumber": "(08) 8956 9759"}
{"name": "St Pauls Catholic School", "region": "Darwin", "physicalAddress": {"description": "41 Francis St", "state": "NT", "postCode": "Rapid Creek", "displayAddress": "41 Francis St, Rapid Creek, NT"}, "postalAddress": {"description": "PO Box 40344", "state": "NT", "postCode": "Casuarina, 0811", "displayAddress": "PO Box 40344, Casuarina, 0811, NT"}, "ntgGeographicDefinition": "Provincial", "preSchool": false, "primarySchool": true, "middleSchool": false, "seniorSchool": false, "telephoneNumber": "(08) 8985 1911"}
{"name": "St Philip's College", "region": "Central", "physicalAddress": {"description": "2 Ulpaya Rd", "state": "NT", "postCode": "Alice Springs", "displayAddress": "2 Ulpaya Rd, Alice Springs, NT"}, "postalAddress": {"description": "PO Box 33", "state": "NT", "postCode": "Alice Springs, 0871", "displayAddress": "PO Box 33, Alice Springs, 0871, NT"}, "ntgGeographicDefinition": "Remote", "preSchool": false, "primarySchool": false, "middleSchool": true, "seniorSchool": true, "telephoneNumber": "(08) 8950 4511"}
{"name": "St Joseph's Flexible Learning Centre", "region": "Central", "physicalAddress": {"description": "5 Bloomfield Street", "state": "NT", "postCode": "Alice Springs, 0870", "displayAddress": "5 Bloomfield Street, Alice Springs, 0870, NT"}, "postalAddress": {"description": "P O Box 2991", "state": "NT", "postCode": "Alice Springs, 0871", "displayAddress": "P O Box 2991, Alice Springs, 0871, NT"}, "ntgGeographicDefinition": "Remote", "preSchool": false, "primarySchool": false, "middleSchool": true, "seniorSchool": false, "telephoneNumber": "89293900"}
{"name": "St Joseph's Catholic College", "region": "Big Rivers", "physicalAddress": {"description": "Maluka Rd", "state": "NT", "postCode": "Katherine East", "displayAddress": "Maluka Rd, Katherine East, NT"}, "postalAddress": {"description": "PO Box 535", "state": "NT", "postCode": "Katherine, 0850", "displayAddress": "PO Box 535, Katherine, 0850, NT"}, "ntgGeographicDefinition": "Remote", "preSchool": false, "primarySchool": true, "middleSchool": true, "seniorSchool": true, "telephoneNumber": "(08) 89723555"}
{"name": "St Johns Catholic College", "region": "Darwin", "physicalAddress": {"description": "54 Salonika St", "state": "NT", "postCode": "The Gardens", "displayAddress": "54 Salonika St, The Gardens, NT"}, "postalAddress": {"description": "Mail Bag 13", "state": "NT", "postCode": "Darwin, 0820", "displayAddress": "Mail Bag 13, Darwin, 0820, NT"}, "ntgGeographicDefinition": "Provincial", "preSchool": false, "primarySchool": false, "middleSchool": true, "seniorSchool": true, "telephoneNumber": "(08) 8982 2222"}
{"name": "St Francis Xavier School", "region": "Top End", "physicalAddress": {"description": "n/a", "state": "NT", "postCode": "Nauiyu", "displayAddress": "n/a, Nauiyu, NT"}, "postalAddress": {"description": "CMB 28", "state": "NT", "postCode": "Daly River, 0822", "displayAddress": "CMB 28, Daly River, 0822, NT"}, "ntgGeographicDefinition": "Very Remote", "preSchool": true, "primarySchool": true, "middleSchool": true, "seniorSchool": false, "telephoneNumber": "(08) 8978 2427"}
{"name": "St Francis of Assisi Catholic Primary School", "region": "Top End", "physicalAddress": {"description": "56 Challoner Cct", "state": "NT", "postCode": "Humpty Doo", "displayAddress": "56 Challoner Cct, Humpty Doo, NT"}, "postalAddress": {"description": "PO Box 921", "state": "NT", "postCode": "Humpty Doo, ", "displayAddress": "PO Box 921, Humpty Doo, , NT"}, "ntgGeographicDefinition": "Provincial", "preSchool": false, "primarySchool": true, "middleSchool": false, "seniorSchool": false, "telephoneNumber": "(08) 8988 1212"}
{"name": "Shepherdson Pre School", "region": "East Arnhem", "physicalAddress": {"description": "Wakirana St", "state": "NT", "postCode": "Galiwinku", "displayAddress": "Wakirana St, Galiwinku, NT"}, "postalAddress": {"description": null, "state": null, "postCode": ", ", "displayAddress": ", , , "}, "ntgGeographicDefinition": null, "preSchool": true, "primarySchool": false, "middleSchool": false, "seniorSchool": false, "telephoneNumber": "(08) 8987 9044"}
{"name": "St Mary's Catholic School", "region": "Darwin", "physicalAddress": {"description": "3 Lindsay St", "state": "NT", "postCode": "Darwin City", "displayAddress": "3 Lindsay St, Darwin City, NT"}, "postalAddress": {"description": "PO Box 2413", "state": "NT", "postCode": "Darwin, 0801", "displayAddress": "PO Box 2413, Darwin, 0801, NT"}, "ntgGeographicDefinition": "Provincial", "preSchool": false, "primarySchool": true, "middleSchool": false, "seniorSchool": false, "telephoneNumber": "(08) 8981 9796"}
{"name": "School of Sport Education NT", "region": "Darwin", "physicalAddress": {"description": "1 Nemarluk Drive", "state": "NT", "postCode": "Ludmilla, NT, 0820", "displayAddress": "1 Nemarluk Drive, Ludmilla, NT, 0820, NT"}, "postalAddress": {"description": "PO Box 42896", "state": "NT", "postCode": "Casuarina, 0811", "displayAddress": "PO Box 42896, Casuarina, 0811, NT"}, "ntgGeographicDefinition": "Outer Regional", "preSchool": false, "primarySchool": true, "middleSchool": true, "seniorSchool": true, "telephoneNumber": "(08) 899 95700"}
{"name": "SEDA College NT", "region": "n/a", "physicalAddress": {"description": "5/90 Ross Smith Ave", "state": "NT", "postCode": "Fannie Bay, 0820", "displayAddress": "5/90 Ross Smith Ave, Fannie Bay, 0820, NT"}, "postalAddress": {"description": "5/90 Ross Smith Ave", "state": "NT", "postCode": "Fannie Bay, 0820", "displayAddress": "5/90 Ross Smith Ave, Fannie Bay, 0820, NT"}, "ntgGeographicDefinition": "n/a", "preSchool": false, "primarySchool": false, "middleSchool": false, "seniorSchool": true, "telephoneNumber": "1300 337 332"}
{"name": "Sattler Christian College", "region": "Top End", "physicalAddress": {"description": "15 Sattler Cres", "state": "NT", "postCode": "Freds Pass", "displayAddress": "15 Sattler Cres, Freds Pass, NT"}, "postalAddress": {"description": "PO Box 1138,", "state": "NT", "postCode": "Coolalinga, 0839", "displayAddress": "PO Box 1138,, Coolalinga, 0839, NT"}, "ntgGeographicDefinition": "Provincial", "preSchool": false, "primarySchool": true, "middleSchool": true, "seniorSchool": false, "telephoneNumber": "7922 1500"}
{"name": "Shepherdson College", "region": "East Arnhem", "physicalAddress": {"description": "Wakirana St", "state": "NT", "postCode": "Galiwinku, 0822", "displayAddress": "Wakirana St, Galiwinku, 0822, NT"}, "postalAddress": {"description": "PMB 74", "state": "NT", "postCode": "via WINELLIE, 0822", "displayAddress": "PMB 74, via WINELLIE, 0822, NT"}, "ntgGeographicDefinition": "Very Remote", "preSchool": true, "primarySchool": true, "middleSchool": true, "seniorSchool": true, "telephoneNumber": "(08) 8987 9044"}
{"name": "Sanderson Middle School", "region": "Darwin", "physicalAddress": {"description": "60 Matthews Rd", "state": "NT", "postCode": "Malak, 0812", "displayAddress": "60 Matthews Rd, Malak, 0812, NT"}, "postalAddress": {"description": "PO Box 189", "state": "NT", "postCode": "SANDERSON, 0813", "displayAddress": "PO Box 189, SANDERSON, 0813, NT"}, "ntgGeographicDefinition": "Outer Regional", "preSchool": false, "primarySchool": false, "middleSchool": true, "seniorSchool": false, "telephoneNumber": "(08) 8927 8899"}
{"name": "Sadadeen Primary School", "region": "Central", "physicalAddress": {"description": "80 Spearwood Rd", "state": "NT", "postCode": "Alice Springs, 0870", "displayAddress": "80 Spearwood Rd, Alice Springs, 0870, NT"}, "postalAddress": {"description": "PO Box 2707", "state": "NT", "postCode": "ALICE SPRINGS, 0871", "displayAddress": "PO Box 2707, ALICE SPRINGS, 0871, NT"}, "ntgGeographicDefinition": "Remote", "preSchool": true, "primarySchool": true, "middleSchool": false, "seniorSchool": false, "telephoneNumber": "(08) 895 52299"}
{"name": "Sacred Heart Primary School", "region": "Top End", "physicalAddress": {"description": "34 Emery Ave", "state": "NT", "postCode": "Woodroffe", "displayAddress": "34 Emery Ave, Woodroffe, NT"}, "postalAddress": {"description": "PO Box 271", "state": "NT", "postCode": "Palmerston, 0831", "displayAddress": "PO Box 271, Palmerston, 0831, NT"}, "ntgGeographicDefinition": "Provincial", "preSchool": false, "primarySchool": true, "middleSchool": false, "seniorSchool": false, "telephoneNumber": "(08) 8924 8700"}
{"name": "Royal Darwin Hospital School", "region": "Darwin", "physicalAddress": {"description": "Rocklands Drive, Tiwi", "state": "NT", "postCode": "Tiwi, 0810", "displayAddress": "Rocklands Drive, Tiwi, Tiwi, 0810, NT"}, "postalAddress": {"description": "C/o Nakara Primary School, Goodman St", "state": "NT", "postCode": "NAKARA, 0810", "displayAddress": "C/o Nakara Primary School, Goodman St, NAKARA, 0810, NT"}, "ntgGeographicDefinition": "Urban", "preSchool": false, "primarySchool": false, "middleSchool": false, "seniorSchool": false, "telephoneNumber": "(08) 8922 8736"}
{"name": "Ross Park Primary School", "region": "Central", "physicalAddress": {"description": "7 Winnecke Ave", "state": "NT", "postCode": "Alice Springs, 0870", "displayAddress": "7 Winnecke Ave, Alice Springs, 0870, NT"}, "postalAddress": {"description": "PO Box 364", "state": "NT", "postCode": "ALICE SPRINGS, 0871", "displayAddress": "PO Box 364, ALICE SPRINGS, 0871, NT"}, "ntgGeographicDefinition": "Remote", "preSchool": true, "primarySchool": true, "middleSchool": false, "seniorSchool": false, "telephoneNumber": "(08) 895 52000"}
{"name": "Rosebery Primary School", "region": "Top End", "physicalAddress": {"description": "Belyuen Road Rosebery", "state": "NT", "postCode": "Rosebery, 0832", "displayAddress": "Belyuen Road Rosebery, Rosebery, 0832, NT"}, "postalAddress": {"description": "PO Box 650", "state": "NT", "postCode": "PALMERSTON, 0832", "displayAddress": "PO Box 650, PALMERSTON, 0832, NT"}, "ntgGeographicDefinition": "Outer Regional", "preSchool": true, "primarySchool": true, "middleSchool": false, "seniorSchool": false, "telephoneNumber": "(08) 792 30100"}
{"name": "Rona Glynn Pre School", "region": "Central", "physicalAddress": {"description": "2 Mckay St", "state": "NT", "postCode": "Alice Springs", "displayAddress": "2 Mckay St, Alice Springs, NT"}, "postalAddress": {"description": null, "state": null, "postCode": ", ", "displayAddress": ", , , "}, "ntgGeographicDefinition": null, "preSchool": true, "primarySchool": false, "middleSchool": false, "seniorSchool": false, "telephoneNumber": "(08) 895 21792"}
{"name": "Rockhampton Downs School", "region": "Barkly", "physicalAddress": {"description": "Community ID 259", "state": "NT", "postCode": "Wogyala", "displayAddress": "Community ID 259, Wogyala, NT"}, "postalAddress": {"description": "PMB 34", "state": "NT", "postCode": "Tennant Creek, 0862", "displayAddress": "PMB 34, Tennant Creek, 0862, NT"}, "ntgGeographicDefinition": "Very Remote", "preSchool": false, "primarySchool": true, "middleSchool": true, "seniorSchool": false, "telephoneNumber": "(08) 8964 4675"}
{"name": "Robinson River School", "region": "Big Rivers", "physicalAddress": {"description": "N/A", "state": "NT", "postCode": "Robinson River", "displayAddress": "N/A, Robinson River, NT"}, "postalAddress": {"description": "PMB 145", "state": "NT", "postCode": "Katherine, 0851", "displayAddress": "PMB 145, Katherine, 0851, NT"}, "ntgGeographicDefinition": "Very Remote", "preSchool": true, "primarySchool": true, "middleSchool": true, "seniorSchool": true, "telephoneNumber": "(08) 8975 9956"}
{"name": "Ramingining School", "region": "East Arnhem", "physicalAddress": {"description": "133Lewangu Drive", "state": "NT", "postCode": "Ramingining, 0822", "displayAddress": "133Lewangu Drive, Ramingining, 0822, NT"}, "postalAddress": {"description": "PMB 125", "state": "NT", "postCode": "via WINNELLIE, 0822", "displayAddress": "PMB 125, via WINNELLIE, 0822, NT"}, "ntgGeographicDefinition": "Very Remote", "preSchool": true, "primarySchool": true, "middleSchool": true, "seniorSchool": true, "telephoneNumber": "(08) 8979 7924"}
{"name": "Ramingining Pre School", "region": "East Arnhem", "physicalAddress": {"description": "N/A", "state": "NT", "postCode": "Ramingining", "displayAddress": "N/A, Ramingining, NT"}, "postalAddress": {"description": null, "state": null, "postCode": ", ", "displayAddress": ", , , "}, "ntgGeographicDefinition": null, "preSchool": true, "primarySchool": false, "middleSchool": false, "seniorSchool": false, "telephoneNumber": "(08) 8979 7924"}
{"name": "Pine Creek School", "region": "Big Rivers", "physicalAddress": {"description": "N/A", "state": "NT", "postCode": "Pine Creek, 0847", "displayAddress": "N/A, Pine Creek, 0847, NT"}, "postalAddress": {"description": "PO Box 196", "state": "NT", "postCode": "Pine Creek, 0847", "displayAddress": "PO Box 196, Pine Creek, 0847, NT"}, "ntgGeographicDefinition": "Remote", "preSchool": true, "primarySchool": true, "middleSchool": false, "seniorSchool": false, "telephoneNumber": "(08) 8976 1228"}
{"name": "Pularumpi School", "region": "Top End", "physicalAddress": {"description": "Pularumpi", "state": "NT", "postCode": "Pirlangimpi", "displayAddress": "Pularumpi, Pirlangimpi, NT"}, "postalAddress": {"description": "PMB 51", "state": "NT", "postCode": "via Winnellie, 0822", "displayAddress": "PMB 51, via Winnellie, 0822, NT"}, "ntgGeographicDefinition": "Very Remote", "preSchool": true, "primarySchool": true, "middleSchool": true, "seniorSchool": false, "telephoneNumber": "(08) 8978 3961"}
{"name": "Pigeon Hole School", "region": "Big Rivers", "physicalAddress": {"description": "N/A", "state": "NT", "postCode": "Pigeon Hole", "displayAddress": "N/A, Pigeon Hole, NT"}, "postalAddress": {"description": "PMB 10", "state": "NT", "postCode": "via Katherine, 0852", "displayAddress": "PMB 10, via Katherine, 0852, NT"}, "ntgGeographicDefinition": "Very Remote", "preSchool": true, "primarySchool": true, "middleSchool": false, "seniorSchool": false, "telephoneNumber": "(08) 8975 0812"}
{"name": "Peppimenarti School", "region": "Top End", "physicalAddress": {"description": "N/A", "state": "NT", "postCode": "Peppimenarti", "displayAddress": "N/A, Peppimenarti, NT"}, "postalAddress": {"description": "PMB 49", "state": "NT", "postCode": "via Winnellie, 0822", "displayAddress": "PMB 49, via Winnellie, 0822, NT"}, "ntgGeographicDefinition": "Very Remote", "preSchool": true, "primarySchool": true, "middleSchool": true, "seniorSchool": false, "telephoneNumber": "(08) 8978 2455"}
{"name": "Parap Primary School", "region": "Darwin", "physicalAddress": {"description": "52 Urquhart Street", "state": "NT", "postCode": "Parap, 0820", "displayAddress": "52 Urquhart Street, Parap, 0820, NT"}, "postalAddress": {"description": "PO Box 69", "state": "NT", "postCode": "PARAP, 0804", "displayAddress": "PO Box 69, PARAP, 0804, NT"}, "ntgGeographicDefinition": "Outer Regional", "preSchool": true, "primarySchool": true, "middleSchool": false, "seniorSchool": false, "telephoneNumber": "(08) 898 22922"}
{"name": "Parap Pre School", "region": "Darwin", "physicalAddress": {"description": "61 Ross Smith Ave", "state": "NT", "postCode": "Parap", "displayAddress": "61 Ross Smith Ave, Parap, NT"}, "postalAddress": {"description": null, "state": null, "postCode": ", ", "displayAddress": ", , , "}, "ntgGeographicDefinition": null, "preSchool": true, "primarySchool": false, "middleSchool": false, "seniorSchool": false, "telephoneNumber": "(08) 8981 5146"}
{"name": "Papunya School", "region": "Central", "physicalAddress": {"description": "N/A", "state": "NT", "postCode": "Papunya, 0872", "displayAddress": "N/A, Papunya, 0872, NT"}, "postalAddress": {"description": "PMB 77", "state": "NT", "postCode": "via Alice Springs, 0872", "displayAddress": "PMB 77, via Alice Springs, 0872, NT"}, "ntgGeographicDefinition": "Very Remote", "preSchool": true, "primarySchool": true, "middleSchool": true, "seniorSchool": true, "telephoneNumber": "(08) 8956 8515"}
{"name": "Palmerston College", "region": "Top End", "physicalAddress": {"description": "10 Tilston Ave", "state": "NT", "postCode": "Driver, 0830", "displayAddress": "10 Tilston Ave, Driver, 0830, NT"}, "postalAddress": {"description": "PO Box 8", "state": "NT", "postCode": "PALMERSTON, ", "displayAddress": "PO Box 8, PALMERSTON, , NT"}, "ntgGeographicDefinition": "Outer Regional", "preSchool": false, "primarySchool": false, "middleSchool": true, "seniorSchool": true, "telephoneNumber": "(08) 899 77999"}
{"name": "Palmerston Christian School", "region": "Top End", "physicalAddress": {"description": "50 Waler Road, Marlow Lagoon", "state": "NT", "postCode": "Marlow Lagoon", "displayAddress": "50 Waler Road, Marlow Lagoon, Marlow Lagoon, NT"}, "postalAddress": {"description": "PO Box 113", "state": "NT", "postCode": "Palmerston, 0831", "displayAddress": "PO Box 113, Palmerston, 0831, NT"}, "ntgGeographicDefinition": "Provincial", "preSchool": false, "primarySchool": true, "middleSchool": true, "seniorSchool": false, "telephoneNumber": "(08) 7922 5600"}
{"name": "Owen Springs Education Centre", "region": "Central", "physicalAddress": {"description": "Stuart Highway", "state": "NT", "postCode": "Alice Springs, 0870", "displayAddress": "Stuart Highway, Alice Springs, 0870, NT"}, "postalAddress": {"description": "PO Box 4856", "state": "NT", "postCode": "Alice Springs, 0871", "displayAddress": "PO Box 4856, Alice Springs, 0871, NT"}, "ntgGeographicDefinition": "Provincial", "preSchool": false, "primarySchool": false, "middleSchool": false, "seniorSchool": false, "telephoneNumber": "(08) 8958 5088 / (08) 8958 5089"}
{"name": "OLSH Thamarrurr Catholic College", "region": "Top End", "physicalAddress": {"description": "n/a", "state": "NT", "postCode": "Wadeye (Port Keats)", "displayAddress": "n/a, Wadeye (Port Keats), NT"}, "postalAddress": {"description": "Wadeye, Port Keats", "state": "NT", "postCode": "via Winnellie, 0822", "displayAddress": "Wadeye, Port Keats, via Winnellie, 0822, NT"}, "ntgGeographicDefinition": "Very Remote", "preSchool": true, "primarySchool": true, "middleSchool": true, "seniorSchool": true, "telephoneNumber": "(08) 8978 2477"}
{"name": "OLSH Primary School", "region": "Central", "physicalAddress": {"description": "5 Bath St", "state": "NT", "postCode": "Alice Springs", "displayAddress": "5 Bath St, Alice Springs, NT"}, "postalAddress": {"description": "PO Box 2508", "state": "NT", "postCode": "Alice Springs, 0871", "displayAddress": "PO Box 2508, Alice Springs, 0871, NT"}, "ntgGeographicDefinition": "Remote", "preSchool": false, "primarySchool": true, "middleSchool": true, "seniorSchool": false, "telephoneNumber": "(08) 8950 6400"}
{"name": "OLSH College - Traeger Campus", "region": "Central", "physicalAddress": {"description": "8 Traeger Ave", "state": "NT", "postCode": "Alice Springs", "displayAddress": "8 Traeger Ave, Alice Springs, NT"}, "postalAddress": {"description": "PO Box 2508", "state": "NT", "postCode": "Alice Springs, 0871", "displayAddress": "PO Box 2508, Alice Springs, 0871, NT"}, "ntgGeographicDefinition": "Urban", "preSchool": false, "primarySchool": true, "middleSchool": true, "seniorSchool": false, "telephoneNumber": "(08) 8950 6400"}
{"name": "OLSH College - Sadadeen Campus", "region": "Central", "physicalAddress": {"description": "Sadadeen Rd", "state": "NT", "postCode": "Alice Springs", "displayAddress": "Sadadeen Rd, Alice Springs, NT"}, "postalAddress": {"description": "PO Box 2508", "state": "NT", "postCode": "Alice Springs, 0871", "displayAddress": "PO Box 2508, Alice Springs, 0871, NT"}, "ntgGeographicDefinition": "Remote", "preSchool": false, "primarySchool": false, "middleSchool": true, "seniorSchool": true, "telephoneNumber": "(08) 8950 6400"}
{"name": "O'Loughlin Catholic College", "region": "Darwin", "physicalAddress": {"description": "70 Mueller Rd", "state": "NT", "postCode": "Karama", "displayAddress": "70 Mueller Rd, Karama, NT"}, "postalAddress": {"description": "P O Box 41911", "state": "NT", "postCode": "Casuarina, 0811", "displayAddress": "P O Box 41911, Casuarina, 0811, NT"}, "ntgGeographicDefinition": "Provincial", "preSchool": false, "primarySchool": false, "middleSchool": true, "seniorSchool": true, "telephoneNumber": "(08) 8945 1277"}
{"name": "Nyirripi School", "region": "Central", "physicalAddress": {"description": "N/A", "state": "NT", "postCode": "Nyirripi", "displayAddress": "N/A, Nyirripi, NT"}, "postalAddress": {"description": "PMB 125", "state": "NT", "postCode": "via Alice Springs, 0872", "displayAddress": "PMB 125, via Alice Springs, 0872, NT"}, "ntgGeographicDefinition": "Very Remote", "preSchool": false, "primarySchool": true, "middleSchool": false, "seniorSchool": false, "telephoneNumber": "(08) 8956 8880"}
{"name": "Nyangatjatjara College - Mutitjulu Campus", "region": "Central", "physicalAddress": {"description": "n/a", "state": "NT", "postCode": "Yulara", "displayAddress": "n/a, Yulara, NT"}, "postalAddress": {"description": "PO Box 171", "state": "NT", "postCode": "Yulara, 0872", "displayAddress": "PO Box 171, Yulara, 0872, NT"}, "ntgGeographicDefinition": "Very Remote", "preSchool": false, "primarySchool": false, "middleSchool": true, "seniorSchool": false, "telephoneNumber": "(08) 8956 2555"}
{"name": "Nyangatjatjara College - Imanpa Campus", "region": "Central", "physicalAddress": {"description": "not available", "state": "NT", "postCode": "not available", "displayAddress": "not available, not available, NT"}, "postalAddress": {"description": "PO Box 171", "state": "NT", "postCode": "Yulara, 0872", "displayAddress": "PO Box 171, Yulara, 0872, NT"}, "ntgGeographicDefinition": "Very Remote", "preSchool": false, "primarySchool": false, "middleSchool": true, "seniorSchool": false, "telephoneNumber": "(08) 8956 7038"}
{"name": "Nyangatjatjara College - Docker Rvr Campus", "region": "Central", "physicalAddress": {"description": "N/A", "state": "NT", "postCode": "Kaltukatjara (Docker River)", "displayAddress": "N/A, Kaltukatjara (Docker River), NT"}, "postalAddress": {"description": "PO Box 171", "state": "NT", "postCode": "Yulara, 0872", "displayAddress": "PO Box 171, Yulara, 0872, NT"}, "ntgGeographicDefinition": "Very Remote", "preSchool": false, "primarySchool": false, "middleSchool": true, "seniorSchool": false, "telephoneNumber": "(08) 8956 7098"}
{"name": "Numbulwar School", "region": "Big Rivers", "physicalAddress": {"description": "N/A", "state": "NT", "postCode": "Numbulwar", "displayAddress": "N/A, Numbulwar, NT"}, "postalAddress": {"description": "PMB 68", "state": "NT", "postCode": "WINELLIE, 0822", "displayAddress": "PMB 68, WINELLIE, 0822, NT"}, "ntgGeographicDefinition": "Very Remote", "preSchool": true, "primarySchool": true, "middleSchool": true, "seniorSchool": true, "telephoneNumber": "(08) 8975 4650"}
{"name": "Numbulwar Pre School", "region": "Big Rivers", "physicalAddress": {"description": "N/A", "state": "NT", "postCode": "Numbulwar", "displayAddress": "N/A, Numbulwar, NT"}, "postalAddress": {"description": null, "state": null, "postCode": ", ", "displayAddress": ", , , "}, "ntgGeographicDefinition": null, "preSchool": true, "primarySchool": false, "middleSchool": false, "seniorSchool": false, "telephoneNumber": "(08) 8975 4650"}
{"name": "Ntaria School", "region": "Central", "physicalAddress": {"description": "N/A", "state": "NT", "postCode": "Hermannsburg (Ntaria)", "displayAddress": "N/A, Hermannsburg (Ntaria), NT"}, "postalAddress": {"description": "PMB 4", "state": "NT", "postCode": "via Alice Springs, 0872", "displayAddress": "PMB 4, via Alice Springs, 0872, NT"}, "ntgGeographicDefinition": "Very Remote", "preSchool": true, "primarySchool": true, "middleSchool": true, "seniorSchool": true, "telephoneNumber": "(08) 8956 7424"}
{"name": "NT School of Distance Education", "region": "Darwin", "physicalAddress": {"description": "The Bullocky Point Education Precinct, Atkins Dr", "state": "NT", "postCode": "The Gardens, 0820", "displayAddress": "The Bullocky Point Education Precinct, Atkins Dr, The Gardens, 0820, NT"}, "postalAddress": {"description": "PO Box 40471", "state": "NT", "postCode": "Casuarina, 0811", "displayAddress": "PO Box 40471, Casuarina, 0811, NT"}, "ntgGeographicDefinition": "Outer regional", "preSchool": false, "primarySchool": false, "middleSchool": false, "seniorSchool": true, "telephoneNumber": "(08) 892 22222"}
{"name": "NT Music School", "region": "Darwin", "physicalAddress": {"description": "60 Matthews Rd", "state": "NT", "postCode": "Wulagi 0812", "displayAddress": "60 Matthews Rd, Wulagi 0812, NT"}, "postalAddress": {"description": "PO Box 455", "state": "NT", "postCode": "Sanderson, 0813", "displayAddress": "PO Box 455, Sanderson, 0813, NT"}, "ntgGeographicDefinition": "Outer Regional", "preSchool": false, "primarySchool": true, "middleSchool": true, "seniorSchool": true, "telephoneNumber": "(08) 896 35550"}
{"name": "Nightcliff Primary School", "region": "Darwin", "physicalAddress": {"description": "17 Pandanus St", "state": "NT", "postCode": "Nightcliff, 0810", "displayAddress": "17 Pandanus St, Nightcliff, 0810, NT"}, "postalAddress": {"description": "PO BOX 798", "state": "NT", "postCode": "NIGHTCLIFF, 0810", "displayAddress": "PO BOX 798, NIGHTCLIFF, 0810, NT"}, "ntgGeographicDefinition": "Outer Regional", "preSchool": false, "primarySchool": true, "middleSchool": false, "seniorSchool": false, "telephoneNumber": "(08) 8948 8488"}
{"name": "Nightcliff Pre School", "region": "Darwin", "physicalAddress": {"description": "17 Pandanus St", "state": "NT", "postCode": "Nightcliff", "displayAddress": "17 Pandanus St, Nightcliff, NT"}, "postalAddress": {"description": null, "state": null, "postCode": ", ", "displayAddress": ", , , "}, "ntgGeographicDefinition": null, "preSchool": true, "primarySchool": false, "middleSchool": false, "seniorSchool": false, "telephoneNumber": "(08) 8948 8488"}
{"name": "Nightcliff Middle School", "region": "Darwin", "physicalAddress": {"description": "90 Aralia St", "state": "NT", "postCode": "Rapid Creek, 0810", "displayAddress": "90 Aralia St, Rapid Creek, 0810, NT"}, "postalAddress": {"description": "90 Aralia St", "state": "NT", "postCode": "NIGHTCLIFF, 0810", "displayAddress": "90 Aralia St, NIGHTCLIFF, 0810, NT"}, "ntgGeographicDefinition": "Outer Regional", "preSchool": false, "primarySchool": false, "middleSchool": true, "seniorSchool": false, "telephoneNumber": "(08) 898 37677"}
{"name": "Nhulunbuy Primary School", "region": "East Arnhem", "physicalAddress": {"description": "60 Chesterfield Cct", "state": "NT", "postCode": "Nhulunbuy, 0880", "displayAddress": "60 Chesterfield Cct, Nhulunbuy, 0880, NT"}, "postalAddress": {"description": "PO Box 321", "state": "NT", "postCode": "NHULUNBUY, 0881", "displayAddress": "PO Box 321, NHULUNBUY, 0881, NT"}, "ntgGeographicDefinition": "Very Remote", "preSchool": true, "primarySchool": true, "middleSchool": false, "seniorSchool": false, "telephoneNumber": "(08) 898 70022"}
{"name": "Nhulunbuy Pre School", "region": "East Arnhem", "physicalAddress": {"description": "36 Chesterfield Cct", "state": "NT", "postCode": "Nhulunbuy", "displayAddress": "36 Chesterfield Cct, Nhulunbuy, NT"}, "postalAddress": {"description": null, "state": null, "postCode": ", ", "displayAddress": ", , , "}, "ntgGeographicDefinition": null, "preSchool": true, "primarySchool": false, "middleSchool": false, "seniorSchool": false, "telephoneNumber": "(08) 8987 1056"}
{"name": "Nhulunbuy High School", "region": "East Arnhem", "physicalAddress": {"description": "51 Matthew Flinders Way", "state": "NT", "postCode": "Nhulunbuy, 0880", "displayAddress": "51 Matthew Flinders Way, Nhulunbuy, 0880, NT"}, "postalAddress": {"description": "PO Box 1096", "state": "NT", "postCode": "NHULUNBUY, 0881", "displayAddress": "PO Box 1096, NHULUNBUY, 0881, NT"}, "ntgGeographicDefinition": "Very Remote", "preSchool": false, "primarySchool": false, "middleSchool": true, "seniorSchool": true, "telephoneNumber": "(08) 898 70844"}
{"name": "Ngukurr Pre School", "region": "Big Rivers", "physicalAddress": {"description": "Bawuda St", "state": "NT", "postCode": "Ngukurr", "displayAddress": "Bawuda St, Ngukurr, NT"}, "postalAddress": {"description": null, "state": null, "postCode": ", ", "displayAddress": ", , , "}, "ntgGeographicDefinition": null, "preSchool": true, "primarySchool": false, "middleSchool": false, "seniorSchool": false, "telephoneNumber": "(08) 8975 4680"}
{"name": "Ngukurr School", "region": "Big Rivers", "physicalAddress": {"description": "Bawuda St", "state": "NT", "postCode": "Ngukurr, 0852", "displayAddress": "Bawuda St, Ngukurr, 0852, NT"}, "postalAddress": {"description": "PMB 138", "state": "NT", "postCode": "KATHERINE, 0851", "displayAddress": "PMB 138, KATHERINE, 0851, NT"}, "ntgGeographicDefinition": "Very Remote", "preSchool": true, "primarySchool": true, "middleSchool": true, "seniorSchool": true, "telephoneNumber": "(08) 8975 4680"}
{"name": "Nhulunbuy Christian School", "region": "East Arnhem", "physicalAddress": {"description": "N/A", "state": "NT", "postCode": "Nhulunbuy", "displayAddress": "N/A, Nhulunbuy, NT"}, "postalAddress": {"description": "PO Box 621", "state": "NT", "postCode": "Nhulunbuy, 0881", "displayAddress": "PO Box 621, Nhulunbuy, 0881, NT"}, "ntgGeographicDefinition": "Very Remote", "preSchool": false, "primarySchool": true, "middleSchool": true, "seniorSchool": false, "telephoneNumber": "(08) 8965 2900"}
{"name": "Nganmarriyanga School", "region": "Top End", "physicalAddress": {"description": "N/A", "state": "NT", "postCode": "Palumpa", "displayAddress": "N/A, Palumpa, NT"}, "postalAddress": {"description": "PMB 85", "state": "NT", "postCode": "via WINNELLIE, 0822", "displayAddress": "PMB 85, via WINNELLIE, 0822, NT"}, "ntgGeographicDefinition": "Very Remote", "preSchool": true, "primarySchool": true, "middleSchool": true, "seniorSchool": true, "telephoneNumber": "(08) 8978 2380"}
{"name": "Nganambala School", "region": "Top End", "physicalAddress": {"description": "n/a", "state": "NT", "postCode": "Emu Point", "displayAddress": "n/a, Emu Point, NT"}, "postalAddress": {"description": "PMB 218", "state": "NT", "postCode": "Via Winnellie, 0822", "displayAddress": "PMB 218, Via Winnellie, 0822, NT"}, "ntgGeographicDefinition": "Very Remote", "preSchool": true, "primarySchool": true, "middleSchool": true, "seniorSchool": false, "telephoneNumber": "(08) 8978 2001"}
{"name": "Newcastle Waters School", "region": "Barkly", "physicalAddress": {"description": "11 Drovers Dr", "state": "NT", "postCode": "Newcastle Waters", "displayAddress": "11 Drovers Dr, Newcastle Waters, NT"}, "postalAddress": {"description": "Newcastle Waters Station", "state": "NT", "postCode": "via Elliott, 0862", "displayAddress": "Newcastle Waters Station, via Elliott, 0862, NT"}, "ntgGeographicDefinition": "Very Remote", "preSchool": true, "primarySchool": true, "middleSchool": true, "seniorSchool": false, "telephoneNumber": "(08) 8964 4566"}
{"name": "Neutral Junction School", "region": "Barkly", "physicalAddress": {"description": "Stuart Hwy", "state": "NT", "postCode": "Neutral Junction", "displayAddress": "Stuart Hwy, Neutral Junction, NT"}, "postalAddress": {"description": "Neutral Junction", "state": "NT", "postCode": "via Alice Springs, 0872", "displayAddress": "Neutral Junction, via Alice Springs, 0872, NT"}, "ntgGeographicDefinition": "Very Remote", "preSchool": false, "primarySchool": true, "middleSchool": true, "seniorSchool": false, "telephoneNumber": "(08) 8956 9754"}
{"name": "Nemarluk School", "region": "Darwin", "physicalAddress": {"description": "30 Styles St", "state": "NT", "postCode": "Alawa, 0810", "displayAddress": "30 Styles St, Alawa, 0810, NT"}, "postalAddress": {"description": "PO Box 39729", "state": "NT", "postCode": "WINNELLIE, 0821", "displayAddress": "PO Box 39729, WINNELLIE, 0821, NT"}, "ntgGeographicDefinition": "Outer Regional", "preSchool": true, "primarySchool": true, "middleSchool": false, "seniorSchool": false, "telephoneNumber": "(08) 898 50400"}
{"name": "Nawardekken Academy", "region": "tba", "physicalAddress": {"description": "Building 6, Mamadawerre & Manmoyi Community", "state": "NT", "postCode": "tba", "displayAddress": "Building 6, Mamadawerre & Manmoyi Community, tba, NT"}, "postalAddress": {"description": "tba", "state": "NT", "postCode": "PO Box 37620 Winnellie  NT  0821, tba", "displayAddress": "tba, PO Box 37620 Winnellie  NT  0821, tba, NT"}, "ntgGeographicDefinition": "tba", "preSchool": false, "primarySchool": false, "middleSchool": false, "seniorSchool": false, "telephoneNumber": "0427 816 431"}
{"name": "Nathalie Gorey Pre School", "region": "Central", "physicalAddress": {"description": "80 Spearwood Rd", "state": "NT", "postCode": "Alice Springs", "displayAddress": "80 Spearwood Rd, Alice Springs, NT"}, "postalAddress": {"description": null, "state": null, "postCode": ", ", "displayAddress": ", , , "}, "ntgGeographicDefinition": null, "preSchool": true, "primarySchool": false, "middleSchool": false, "seniorSchool": false, "telephoneNumber": "(08) 8952 1186"}
{"name": "Nakara Primary School", "region": "Darwin", "physicalAddress": {"description": "35 Nakara Tce", "state": "NT", "postCode": "Nakara, 0810", "displayAddress": "35 Nakara Tce, Nakara, 0810, NT"}, "postalAddress": {"description": "35 Nakara Tce", "state": "NT", "postCode": "Nakara, 0810", "displayAddress": "35 Nakara Tce, Nakara, 0810, NT"}, "ntgGeographicDefinition": "Outer Regional", "preSchool": true, "primarySchool": true, "middleSchool": false, "seniorSchool": false, "telephoneNumber": "(08) 8927 9823"}
{"name": "Mutitjulu School", "region": "Central", "physicalAddress": {"description": "Mutitjulu", "state": "NT", "postCode": "Ayers Rock", "displayAddress": "Mutitjulu, Ayers Rock, NT"}, "postalAddress": {"description": "PO Box 121", "state": "NT", "postCode": "Yulara, 0872", "displayAddress": "PO Box 121, Yulara, 0872, NT"}, "ntgGeographicDefinition": "Very Remote", "preSchool": false, "primarySchool": true, "middleSchool": true, "seniorSchool": false, "telephoneNumber": "(08) 8956 2547"}
{"name": "Murrupurtiyanuwu Catholic Primary School", "region": "Top End", "physicalAddress": {"description": "Kerinauia Highway", "state": "NT", "postCode": "Nguiu", "displayAddress": "Kerinauia Highway, Nguiu, NT"}, "postalAddress": {"description": "PO Box 45", "state": "NT", "postCode": "Wurrumiyanga, Bathurst Island, via Winnellie, 0822", "displayAddress": "PO Box 45, Wurrumiyanga, Bathurst Island, via Winnellie, 0822, NT"}, "ntgGeographicDefinition": "Very Remote", "preSchool": true, "primarySchool": true, "middleSchool": false, "seniorSchool": false, "telephoneNumber": "(08) 8978 3986"}
{"name": "Murray Downs School", "region": "Barkly", "physicalAddress": {"description": "Outstation", "state": "NT", "postCode": "Murray Downs(Imangara)", "displayAddress": "Outstation, Murray Downs(Imangara), NT"}, "postalAddress": {"description": "PMB 48", "state": "NT", "postCode": "Alice Springs, 0872", "displayAddress": "PMB 48, Alice Springs, 0872, NT"}, "ntgGeographicDefinition": "Very Remote", "preSchool": true, "primarySchool": true, "middleSchool": true, "seniorSchool": false, "telephoneNumber": "(08) 8964 1951"}
{"name": "Nakara Pre School", "region": "Darwin", "physicalAddress": {"description": "35 Nakara Tce", "state": "NT", "postCode": "Nakara", "displayAddress": "35 Nakara Tce, Nakara, NT"}, "postalAddress": {"description": null, "state": null, "postCode": ", ", "displayAddress": ", , , "}, "ntgGeographicDefinition": null, "preSchool": true, "primarySchool": false, "middleSchool": false, "seniorSchool": false, "telephoneNumber": "(08) 8927 9823"}
{"name": "Mount Allan School", "region": "Central", "physicalAddress": {"description": "N/A", "state": "NT", "postCode": "Yuelamu", "displayAddress": "N/A, Yuelamu, NT"}, "postalAddress": {"description": "PMB  6", "state": "NT", "postCode": "Mount Allan School via Alice Springs, 0872", "displayAddress": "PMB  6, Mount Allan School via Alice Springs, 0872, NT"}, "ntgGeographicDefinition": "Very Remote", "preSchool": true, "primarySchool": true, "middleSchool": true, "seniorSchool": true, "telephoneNumber": "(08) 8956 8860"}
{"name": "Mulga Bore School", "region": "Central", "physicalAddress": {"description": "n/a", "state": "NT", "postCode": "Mulga Bore Community", "displayAddress": "n/a, Mulga Bore Community, NT"}, "postalAddress": {"description": "PMB 18", "state": "NT", "postCode": "via Alice Springs, 0872", "displayAddress": "PMB 18, via Alice Springs, 0872, NT"}, "ntgGeographicDefinition": "Very Remote", "preSchool": true, "primarySchool": true, "middleSchool": true, "seniorSchool": true, "telephoneNumber": "(08) 8956 9824"}
{"name": "Moulden Primary School", "region": "Top End", "physicalAddress": {"description": "103 Bonson Tce", "state": "NT", "postCode": "Moulden, 0830", "displayAddress": "103 Bonson Tce, Moulden, 0830, NT"}, "postalAddress": {"description": "PO Box 80", "state": "NT", "postCode": "PALMERSTON, 0831", "displayAddress": "PO Box 80, PALMERSTON, 0831, NT"}, "ntgGeographicDefinition": "Outer Regional", "preSchool": true, "primarySchool": true, "middleSchool": false, "seniorSchool": false, "telephoneNumber": "(08) 8930 5900"}
{"name": "Moulden Pre School", "region": "Top End", "physicalAddress": {"description": "103 Bonson Tce", "state": "NT", "postCode": "Moulden", "displayAddress": "103 Bonson Tce, Moulden, NT"}, "postalAddress": {"description": null, "state": null, "postCode": ", ", "displayAddress": ", , , "}, "ntgGeographicDefinition": null, "preSchool": true, "primarySchool": false, "middleSchool": false, "seniorSchool": false, "telephoneNumber": "(08) 8930 5965"}
{"name": "Mother Teresa Catholic Primary School", "region": "Top End", "physicalAddress": {"description": "Ginger St", "state": "NT", "postCode": "Zuccoli", "displayAddress": "Ginger St, Zuccoli, NT"}, "postalAddress": {"description": "PO Box 1125", "state": null, "postCode": "Palmerston, 0830", "displayAddress": "PO Box 1125, Palmerston, 0830, "}, "ntgGeographicDefinition": null, "preSchool": false, "primarySchool": true, "middleSchool": false, "seniorSchool": false, "telephoneNumber": "(08) 7969 5600"}
{"name": "Moil Pre School", "region": "Darwin", "physicalAddress": {"description": "Moil Crescent", "state": "NT", "postCode": "Moil", "displayAddress": "Moil Crescent, Moil, NT"}, "postalAddress": {"description": null, "state": null, "postCode": ", ", "displayAddress": ", , , "}, "ntgGeographicDefinition": null, "preSchool": true, "primarySchool": false, "middleSchool": false, "seniorSchool": false, "telephoneNumber": "(08) 898 37535"}
{"name": "Moil Primary School", "region": "Darwin", "physicalAddress": {"description": "37 Lanyon Tce", "state": "NT", "postCode": "Moil, 0810", "displayAddress": "37 Lanyon Tce, Moil, 0810, NT"}, "postalAddress": {"description": "37 Lanyon Tce", "state": "NT", "postCode": "MOIL, 0810", "displayAddress": "37 Lanyon Tce, MOIL, 0810, NT"}, "ntgGeographicDefinition": "Outer Regional", "preSchool": false, "primarySchool": false, "middleSchool": false, "seniorSchool": false, "telephoneNumber": "(08) 898 37530"}
{"name": "Minyerri Pre School", "region": "Big Rivers", "physicalAddress": {"description": "N/A", "state": "NT", "postCode": "Minyerri (Hodgson Downs)", "displayAddress": "N/A, Minyerri (Hodgson Downs), NT"}, "postalAddress": {"description": null, "state": null, "postCode": ", ", "displayAddress": ", , , "}, "ntgGeographicDefinition": null, "preSchool": true, "primarySchool": false, "middleSchool": false, "seniorSchool": false, "telephoneNumber": "(08) 8975 9972"}
{"name": "Minyerri School", "region": "Big Rivers", "physicalAddress": {"description": "N/A", "state": "NT", "postCode": "Minyerri (Hodgson Downs)", "displayAddress": "N/A, Minyerri (Hodgson Downs), NT"}, "postalAddress": {"description": "PMB 40", "state": "NT", "postCode": "KATHERINE, 0851", "displayAddress": "PMB 40, KATHERINE, 0851, NT"}, "ntgGeographicDefinition": "Very Remote", "preSchool": true, "primarySchool": true, "middleSchool": true, "seniorSchool": true, "telephoneNumber": "(08) 8975 9972"}
{"name": "Milyakburra School", "region": "East Arnhem", "physicalAddress": {"description": "N/A", "state": "NT", "postCode": "Milyakburra (Bickerton Island)", "displayAddress": "N/A, Milyakburra (Bickerton Island), NT"}, "postalAddress": {"description": "PMB 5", "state": "NT", "postCode": "Bickerton Island, via Winnellie, 0822", "displayAddress": "PMB 5, Bickerton Island, via Winnellie, 0822, NT"}, "ntgGeographicDefinition": "Very Remote", "preSchool": true, "primarySchool": true, "middleSchool": true, "seniorSchool": true, "telephoneNumber": "(08) 8987 6084"}
{"name": "Mimik-Ga Centre", "region": "Darwin", "physicalAddress": {"description": "4 Henbury Ave", "state": "NT", "postCode": "Wanguri, 0810", "displayAddress": "4 Henbury Ave, Wanguri, 0810, NT"}, "postalAddress": {"description": "PO Box 40519", "state": "NT", "postCode": "Casuarina, 0811", "displayAddress": "PO Box 40519, Casuarina, 0811, NT"}, "ntgGeographicDefinition": "Outer Regional", "preSchool": true, "primarySchool": true, "middleSchool": false, "seniorSchool": false, "telephoneNumber": "(08) 898 37900"}
{"name": "Millner Primary School", "region": "Darwin", "physicalAddress": {"description": "41 Sabine Rd", "state": "NT", "postCode": "Millner, 0810", "displayAddress": "41 Sabine Rd, Millner, 0810, NT"}, "postalAddress": {"description": "41 Sabine Rd", "state": "NT", "postCode": "MILLNER, 0810", "displayAddress": "41 Sabine Rd, MILLNER, 0810, NT"}, "ntgGeographicDefinition": "Outer Regional", "preSchool": true, "primarySchool": true, "middleSchool": false, "seniorSchool": false, "telephoneNumber": "(08) 792 30333"}
{"name": "Milikapiti School", "region": "Top End", "physicalAddress": {"description": "N/A", "state": "NT", "postCode": "Milikapiti (Snake Bay)", "displayAddress": "N/A, Milikapiti (Snake Bay), NT"}, "postalAddress": {"description": "PMB 96", "state": "NT", "postCode": "via Winnellie, 0822", "displayAddress": "PMB 96, via Winnellie, 0822, NT"}, "ntgGeographicDefinition": "Very Remote", "preSchool": true, "primarySchool": true, "middleSchool": true, "seniorSchool": false, "telephoneNumber": "(08) 8978 3960"}
{"name": "Millner Pre School", "region": "Darwin", "physicalAddress": {"description": "41 Sabine Rd", "state": "NT", "postCode": "Millner", "displayAddress": "41 Sabine Rd, Millner, NT"}, "postalAddress": {"description": null, "state": null, "postCode": ", ", "displayAddress": ", , , "}, "ntgGeographicDefinition": null, "preSchool": true, "primarySchool": false, "middleSchool": false, "seniorSchool": false, "telephoneNumber": "(08) 792 30333"}
{"name": "Milkwood Steiner", "region": "Darwin", "physicalAddress": {"description": "107 Boulter Road, Berrimah NT 0828", "state": "NT", "postCode": "Marrara", "displayAddress": "107 Boulter Road, Berrimah NT 0828, Marrara, NT"}, "postalAddress": {"description": "PO Box 319", "state": "NT", "postCode": "Karama, 0812", "displayAddress": "PO Box 319, Karama, 0812, NT"}, "ntgGeographicDefinition": "Urban", "preSchool": true, "primarySchool": true, "middleSchool": false, "seniorSchool": false, "telephoneNumber": "08 8947 1669"}
{"name": "Milingimbi School", "region": "East Arnhem", "physicalAddress": {"description": "N/A", "state": "NT", "postCode": "Milingimbi, 0822", "displayAddress": "N/A, Milingimbi, 0822, NT"}, "postalAddress": {"description": "PMB 54, Milingimbi", "state": "NT", "postCode": "via WINNELLIE, 0822", "displayAddress": "PMB 54, Milingimbi, via WINNELLIE, 0822, NT"}, "ntgGeographicDefinition": "Very Remote", "preSchool": true, "primarySchool": true, "middleSchool": true, "seniorSchool": true, "telephoneNumber": "(08) 8987 9902"}
{"name": "Middle Point School", "region": "Top End", "physicalAddress": {"description": "615 Anzac Pde", "state": "NT", "postCode": "Middle Point", "displayAddress": "615 Anzac Pde, Middle Point, NT"}, "postalAddress": {"description": "PO Box 96", "state": "NT", "postCode": "Humpty Doo, 0836", "displayAddress": "PO Box 96, Humpty Doo, 0836, NT"}, "ntgGeographicDefinition": "Outer Regional", "preSchool": false, "primarySchool": true, "middleSchool": false, "seniorSchool": false, "telephoneNumber": "(08) 8988 1688"}
{"name": "Mbunghara School", "region": "Central", "physicalAddress": {"description": "N/A", "state": "NT", "postCode": "Mbunghara", "displayAddress": "N/A, Mbunghara, NT"}, "postalAddress": {"description": "PMB 242", "state": "NT", "postCode": "via Alice Springs, 0872", "displayAddress": "PMB 242, via Alice Springs, 0872, NT"}, "ntgGeographicDefinition": "Very Remote", "preSchool": false, "primarySchool": true, "middleSchool": true, "seniorSchool": true, "telephoneNumber": "(08) 8956 8503"}
{"name": "Mataranka School", "region": "Big Rivers", "physicalAddress": {"description": "Roper Terrace", "state": "NT", "postCode": "Mataranka, 0852", "displayAddress": "Roper Terrace, Mataranka, 0852, NT"}, "postalAddress": {"description": "PO Box 4022", "state": "NT", "postCode": "Mataranka, 0852", "displayAddress": "PO Box 4022, Mataranka, 0852, NT"}, "ntgGeographicDefinition": "Very Remote", "preSchool": true, "primarySchool": true, "middleSchool": true, "seniorSchool": false, "telephoneNumber": "(08) 8975 4543"}
{"name": "Marrara Christian School", "region": "Darwin", "physicalAddress": {"description": "110 Amy Johnson Ave", "state": "NT", "postCode": "Marrara", "displayAddress": "110 Amy Johnson Ave, Marrara, NT"}, "postalAddress": {"description": "PO Box 84", "state": "NT", "postCode": "Karama, 0812", "displayAddress": "PO Box 84, Karama, 0812, NT"}, "ntgGeographicDefinition": "Provincial", "preSchool": true, "primarySchool": true, "middleSchool": true, "seniorSchool": true, "telephoneNumber": "(08) 8920 2000"}
{"name": "Manyallaluk School", "region": "Big Rivers", "physicalAddress": {"description": "N/A", "state": "NT", "postCode": "Manyallaluk (Eva Valley)", "displayAddress": "N/A, Manyallaluk (Eva Valley), NT"}, "postalAddress": {"description": "PO Box 271", "state": "Nt", "postCode": "Katherine, 0851", "displayAddress": "PO Box 271, Katherine, 0851, Nt"}, "ntgGeographicDefinition": "Very Remote", "preSchool": true, "primarySchool": true, "middleSchool": false, "seniorSchool": false, "telephoneNumber": "(08) 8975 4438"}
{"name": "Mapuru Yirralka College", "region": "East Arnhem", "physicalAddress": {"description": "Dhabulu Rd", "state": "NT", "postCode": "Mapuru, NT 0822", "displayAddress": "Dhabulu Rd, Mapuru, NT 0822, NT"}, "postalAddress": {"description": "PMB 301", "state": "NT", "postCode": "Winnellie, 0821", "displayAddress": "PMB 301, Winnellie, 0821, NT"}, "ntgGeographicDefinition": "Very Remote", "preSchool": false, "primarySchool": false, "middleSchool": false, "seniorSchool": false, "telephoneNumber": "(08) 8970 4994"}
{"name": "Manunda Terrace Primary School", "region": "Darwin", "physicalAddress": {"description": "31 Manunda Tce", "state": "NT", "postCode": "Karama, 0812", "displayAddress": "31 Manunda Tce, Karama, 0812, NT"}, "postalAddress": {"description": "31 Manunda Tce", "state": "NT", "postCode": "KARAMA, 0812", "displayAddress": "31 Manunda Tce, KARAMA, 0812, NT"}, "ntgGeographicDefinition": "Outer Regional", "preSchool": true, "primarySchool": true, "middleSchool": false, "seniorSchool": false, "telephoneNumber": "(08) 899 77366"}
{"name": "Manunda Terrace Pre School", "region": "Darwin", "physicalAddress": {"description": "31 Manunda Tce", "state": "NT", "postCode": "Karama", "displayAddress": "31 Manunda Tce, Karama, NT"}, "postalAddress": {"description": null, "state": null, "postCode": ", ", "displayAddress": ", , , "}, "ntgGeographicDefinition": null, "preSchool": true, "primarySchool": false, "middleSchool": false, "seniorSchool": false, "telephoneNumber": "(08) 899 77366"}
{"name": "Mamaruni School", "region": "Top End", "physicalAddress": {"description": "N/A", "state": "NT", "postCode": "Minjilang (Croker Is)", "displayAddress": "N/A, Minjilang (Croker Is), NT"}, "postalAddress": {"description": "PMB 47", "state": "NT", "postCode": "via Winnellie, 0822", "displayAddress": "PMB 47, via Winnellie, 0822, NT"}, "ntgGeographicDefinition": "Very Remote", "preSchool": true, "primarySchool": true, "middleSchool": true, "seniorSchool": false, "telephoneNumber": "(08) 8979 0255"}
{"name": "Maningrida College", "region": "Top End", "physicalAddress": {"description": "n/a", "state": "NT", "postCode": "Maningrida, 0822", "displayAddress": "n/a, Maningrida, 0822, NT"}, "postalAddress": {"description": "PMB 67", "state": "NT", "postCode": "via Winnellie, 0822", "displayAddress": "PMB 67, via Winnellie, 0822, NT"}, "ntgGeographicDefinition": "Very Remote", "preSchool": true, "primarySchool": true, "middleSchool": true, "seniorSchool": true, "telephoneNumber": "(08) 8979 5950"}
{"name": "Malak Primary School", "region": "Darwin", "physicalAddress": {"description": "45 Malak Cres", "state": "NT", "postCode": "Malak, 0812", "displayAddress": "45 Malak Cres, Malak, 0812, NT"}, "postalAddress": {"description": "45 Malak Crescent", "state": "NT", "postCode": "MALAK, 0812", "displayAddress": "45 Malak Crescent, MALAK, 0812, NT"}, "ntgGeographicDefinition": "Outer Regional", "preSchool": true, "primarySchool": true, "middleSchool": false, "seniorSchool": false, "telephoneNumber": "(08) 899 77600"}
{"name": "Malak Pre School", "region": "Darwin", "physicalAddress": {"description": "45 Malak Cres", "state": "NT", "postCode": "Malak", "displayAddress": "45 Malak Cres, Malak, NT"}, "postalAddress": {"description": null, "state": null, "postCode": ", ", "displayAddress": ", , , "}, "ntgGeographicDefinition": null, "preSchool": true, "primarySchool": false, "middleSchool": false, "seniorSchool": false, "telephoneNumber": "(08) 899 77600"}
{"name": "Mackillop Catholic College", "region": "Top End", "physicalAddress": {"description": "285 Farrar Boulevard", "state": "NT", "postCode": "Johnston", "displayAddress": "285 Farrar Boulevard, Johnston, NT"}, "postalAddress": {"description": "P O Box 2608", "state": "NT", "postCode": "Palmerston, 0831", "displayAddress": "P O Box 2608, Palmerston, 0831, NT"}, "ntgGeographicDefinition": "Provincial", "preSchool": false, "primarySchool": false, "middleSchool": true, "seniorSchool": true, "telephoneNumber": "08 8930 5757"}
{"name": "MacFarlane Primary School", "region": "Big Rivers", "physicalAddress": {"description": "42 Grevillea Rd", "state": "NT", "postCode": "Katherine East, 0850", "displayAddress": "42 Grevillea Rd, Katherine East, 0850, NT"}, "postalAddress": {"description": "42 Grevillea Road", "state": "NT", "postCode": "KATHERINE EAST, 0850", "displayAddress": "42 Grevillea Road, KATHERINE EAST, 0850, NT"}, "ntgGeographicDefinition": "Remote", "preSchool": true, "primarySchool": true, "middleSchool": false, "seniorSchool": false, "telephoneNumber": "(08) 896 51700"}
{"name": "Ludmilla Pre School", "region": "Darwin", "physicalAddress": {"description": "41 Bagot Rd", "state": "NT", "postCode": "Ludmilla", "displayAddress": "41 Bagot Rd, Ludmilla, NT"}, "postalAddress": {"description": null, "state": null, "postCode": ", ", "displayAddress": ", , , "}, "ntgGeographicDefinition": null, "preSchool": true, "primarySchool": false, "middleSchool": false, "seniorSchool": false, "telephoneNumber": "(08) 898 37889"}
{"name": "MacFarlane Pre School", "region": "Big Rivers", "physicalAddress": {"description": "Grevillea Rd", "state": "NT", "postCode": "Katherine East", "displayAddress": "Grevillea Rd, Katherine East, NT"}, "postalAddress": {"description": null, "state": null, "postCode": ", ", "displayAddress": ", , , "}, "ntgGeographicDefinition": null, "preSchool": true, "primarySchool": false, "middleSchool": false, "seniorSchool": false, "telephoneNumber": "(08) 8972 3069"}
{"name": "Ludmilla Primary School", "region": "Darwin", "physicalAddress": {"description": "41 Bagot Rd", "state": "NT", "postCode": "Ludmilla, 0820", "displayAddress": "41 Bagot Rd, Ludmilla, 0820, NT"}, "postalAddress": {"description": "PO Box 39945", "state": "NT", "postCode": "WINNELLIE, 0821", "displayAddress": "PO Box 39945, WINNELLIE, 0821, NT"}, "ntgGeographicDefinition": "Outer Regional", "preSchool": true, "primarySchool": true, "middleSchool": false, "seniorSchool": false, "telephoneNumber": "(08) 898 37888"}
{"name": "Ltyentye Apurte CEC", "region": "Central", "physicalAddress": {"description": "N/A", "state": "NT", "postCode": "Santa Teresa (Ltyenty Apurte)", "displayAddress": "N/A, Santa Teresa (Ltyenty Apurte), NT"}, "postalAddress": {"description": "Santa Teresa, PMB 221", "state": "NT", "postCode": "via A/Springs, 0871", "displayAddress": "Santa Teresa, PMB 221, via A/Springs, 0871, NT"}, "ntgGeographicDefinition": "Remote", "preSchool": true, "primarySchool": true, "middleSchool": true, "seniorSchool": false, "telephoneNumber": "(08) 8956 0937"}
{"name": "Living Waters Lutheran School", "region": "Central", "physicalAddress": {"description": "Cnr Albrecht Dr & Kramer St", "state": "NT", "postCode": "Alice Springs", "displayAddress": "Cnr Albrecht Dr & Kramer St, Alice Springs, NT"}, "postalAddress": {"description": "PO Box 8869", "state": "NT", "postCode": "Alice Springs, 0871", "displayAddress": "PO Box 8869, Alice Springs, 0871, NT"}, "ntgGeographicDefinition": "Remote", "preSchool": false, "primarySchool": true, "middleSchool": false, "seniorSchool": false, "telephoneNumber": "(08) 8950 0700"}
{"name": "Leanyer Primary School", "region": "Darwin", "physicalAddress": {"description": "114 Leanyer Drive,", "state": "NT", "postCode": "Leanyer, 0812", "displayAddress": "114 Leanyer Drive,, Leanyer, 0812, NT"}, "postalAddress": {"description": "114 Leanyer Drive", "state": "NT", "postCode": "LEANYER, 0812", "displayAddress": "114 Leanyer Drive, LEANYER, 0812, NT"}, "ntgGeographicDefinition": "Outer Regional", "preSchool": true, "primarySchool": true, "middleSchool": false, "seniorSchool": false, "telephoneNumber": "(08) 8927 4022"}
{"name": "Leanyer Pre School", "region": "Darwin", "physicalAddress": {"description": "114 Leanyer Dr", "state": "NT", "postCode": "Leanyer", "displayAddress": "114 Leanyer Dr, Leanyer, NT"}, "postalAddress": {"description": null, "state": null, "postCode": ", ", "displayAddress": ", , , "}, "ntgGeographicDefinition": null, "preSchool": true, "primarySchool": false, "middleSchool": false, "seniorSchool": false, "telephoneNumber": "(08) 8927 4022"}
{"name": "Larrakeyah Primary School", "region": "Darwin", "physicalAddress": {"description": "3 Packard St", "state": "NT", "postCode": "Larrakeyah, 0820", "displayAddress": "3 Packard St, Larrakeyah, 0820, NT"}, "postalAddress": {"description": "PO Box 412", "state": "NT", "postCode": "DARWIN, 0801", "displayAddress": "PO Box 412, DARWIN, 0801, NT"}, "ntgGeographicDefinition": "Outer Regional", "preSchool": true, "primarySchool": true, "middleSchool": false, "seniorSchool": false, "telephoneNumber": "(08) 8981 3211"}
{"name": "Laynhapuy Homelands School", "region": "East Arnhem", "physicalAddress": {"description": "Galpu Rd", "state": "NT", "postCode": "Yirrkala", "displayAddress": "Galpu Rd, Yirrkala, NT"}, "postalAddress": {"description": "PMB 747", "state": "NT", "postCode": "Nhulunbuy, 0881", "displayAddress": "PMB 747, Nhulunbuy, 0881, NT"}, "ntgGeographicDefinition": "Very Remote", "preSchool": false, "primarySchool": true, "middleSchool": true, "seniorSchool": true, "telephoneNumber": "(08) 898 71224"}
{"name": "Larrakeyah Pre School", "region": "Darwin", "physicalAddress": {"description": "3 Packard St", "state": "NT", "postCode": "Larrakeyah", "displayAddress": "3 Packard St, Larrakeyah, NT"}, "postalAddress": {"description": null, "state": null, "postCode": ", ", "displayAddress": ", , , "}, "ntgGeographicDefinition": null, "preSchool": true, "primarySchool": false, "middleSchool": false, "seniorSchool": false, "telephoneNumber": "(08) 8981 9091"}
{"name": "Larapinta Primary School", "region": "Central", "physicalAddress": {"description": "22 Albrecht Dr", "state": "NT", "postCode": "Alice Springs", "displayAddress": "22 Albrecht Dr, Alice Springs, NT"}, "postalAddress": {"description": "PO Box 9021", "state": "NT", "postCode": "ALICE SPRINGS, 0871", "displayAddress": "PO Box 9021, ALICE SPRINGS, 0871, NT"}, "ntgGeographicDefinition": "Remote", "preSchool": true, "primarySchool": true, "middleSchool": false, "seniorSchool": false, "telephoneNumber": "(08) 895 85155"}
{"name": "Laramba School", "region": "Central", "physicalAddress": {"description": "N/A", "state": "NT", "postCode": "Laramba (Napperby)", "displayAddress": "N/A, Laramba (Napperby), NT"}, "postalAddress": {"description": "PMB 213", "state": "NT", "postCode": "via Alice Springs, 0872", "displayAddress": "PMB 213, via Alice Springs, 0872, NT"}, "ntgGeographicDefinition": "Very Remote", "preSchool": true, "primarySchool": true, "middleSchool": true, "seniorSchool": true, "telephoneNumber": "(08) 8956 8771"}
{"name": "Larapinta Pre School", "region": "Central", "physicalAddress": {"description": "22 Albrecht Dr", "state": "NT", "postCode": "Alice Springs", "displayAddress": "22 Albrecht Dr, Alice Springs, NT"}, "postalAddress": {"description": null, "state": null, "postCode": ", ", "displayAddress": ", , , "}, "ntgGeographicDefinition": null, "preSchool": true, "primarySchool": false, "middleSchool": false, "seniorSchool": false, "telephoneNumber": "(08) 895 85145"}
{"name": "Lajamanu School", "region": "Big Rivers", "physicalAddress": {"description": "N/A", "state": "NT", "postCode": "Lajamanu ( Hooker Ck)", "displayAddress": "N/A, Lajamanu ( Hooker Ck), NT"}, "postalAddress": {"description": "PMB 63", "state": "NT", "postCode": "via Katherine, 0851", "displayAddress": "PMB 63, via Katherine, 0851, NT"}, "ntgGeographicDefinition": "Very Remote", "preSchool": true, "primarySchool": true, "middleSchool": true, "seniorSchool": true, "telephoneNumber": "(08) 8975 0946"}
{"name": "Lajamanu Pre School", "region": "Big Rivers", "physicalAddress": {"description": "N/A", "state": "NT", "postCode": "Lajamanu (Hooker Ck)", "displayAddress": "N/A, Lajamanu (Hooker Ck), NT"}, "postalAddress": {"description": null, "state": null, "postCode": ", ", "displayAddress": ", , , "}, "ntgGeographicDefinition": null, "preSchool": false, "primarySchool": false, "middleSchool": false, "seniorSchool": false, "telephoneNumber": "(08) 89750 946"}
{"name": "Kintore Street School", "region": "Big Rivers", "physicalAddress": {"description": "11 Kintore St", "state": "NT", "postCode": "Katherine, 0872", "displayAddress": "11 Kintore St, Katherine, 0872, NT"}, "postalAddress": {"description": "PO Box 1931", "state": "NT", "postCode": "KATHERINE, 0851", "displayAddress": "PO Box 1931, KATHERINE, 0851, NT"}, "ntgGeographicDefinition": "Remote", "preSchool": false, "primarySchool": true, "middleSchool": true, "seniorSchool": true, "telephoneNumber": "(08) 8973 3888"}
{"name": "Kintore Street Pre School", "region": "Big Rivers", "physicalAddress": {"description": "11 Kintore St", "state": "NT", "postCode": "Katherine", "displayAddress": "11 Kintore St, Katherine, NT"}, "postalAddress": {"description": null, "state": null, "postCode": ", ", "displayAddress": ", , , "}, "ntgGeographicDefinition": null, "preSchool": true, "primarySchool": false, "middleSchool": false, "seniorSchool": false, "telephoneNumber": "(08) 8973 3888"}
{"name": "Kiana School", "region": "Big Rivers", "physicalAddress": {"description": "N/A", "state": "NT", "postCode": "Kiana", "displayAddress": "N/A, Kiana, NT"}, "postalAddress": {"description": "PMB 33", "state": "NT", "postCode": "via Tennanat Creek, 0861", "displayAddress": "PMB 33, via Tennanat Creek, 0861, NT"}, "ntgGeographicDefinition": "Very Remote", "preSchool": true, "primarySchool": true, "middleSchool": true, "seniorSchool": false, "telephoneNumber": "(08) 8975 9820"}
{"name": "Katherine South Primary School", "region": "Big Rivers", "physicalAddress": {"description": "Riverbank Dr", "state": "NT", "postCode": "Katherine, 0850", "displayAddress": "Riverbank Dr, Katherine, 0850, NT"}, "postalAddress": {"description": "PO Box 721", "state": "NT", "postCode": "KATHERINE, 0851", "displayAddress": "PO Box 721, KATHERINE, 0851, NT"}, "ntgGeographicDefinition": "Remote", "preSchool": true, "primarySchool": true, "middleSchool": false, "seniorSchool": false, "telephoneNumber": "(08) 8972 1277"}
{"name": "Katherine South Pre School", "region": "Big Rivers", "physicalAddress": {"description": "Riverbank Drive", "state": "NT", "postCode": "Katherine", "displayAddress": "Riverbank Drive, Katherine, NT"}, "postalAddress": {"description": null, "state": null, "postCode": ", ", "displayAddress": ", , , "}, "ntgGeographicDefinition": null, "preSchool": true, "primarySchool": false, "middleSchool": false, "seniorSchool": false, "telephoneNumber": "(08) 8972 1277"}
{"name": "Katherine School Of The Air", "region": "Big Rivers", "physicalAddress": {"description": "101 Giles St", "state": "NT", "postCode": "Katherine, 0850", "displayAddress": "101 Giles St, Katherine, 0850, NT"}, "postalAddress": {"description": "PO Box 531", "state": "NT", "postCode": "KATHERINE, 0851", "displayAddress": "PO Box 531, KATHERINE, 0851, NT"}, "ntgGeographicDefinition": "Remote", "preSchool": true, "primarySchool": true, "middleSchool": true, "seniorSchool": false, "telephoneNumber": "(08) 896 51555"}
{"name": "Katherine High School", "region": "Big Rivers", "physicalAddress": {"description": "Grevillea Rd", "state": "NT", "postCode": "Katherine East, 0850", "displayAddress": "Grevillea Rd, Katherine East, 0850, NT"}, "postalAddress": {"description": "PO Box 189", "state": "NT", "postCode": "KATHERINE, 0851", "displayAddress": "PO Box 189, KATHERINE, 0851, NT"}, "ntgGeographicDefinition": "Remote", "preSchool": false, "primarySchool": false, "middleSchool": true, "seniorSchool": true, "telephoneNumber": "(08) 897 38200"}
{"name": "Katherine Flexible Learning Centre", "region": "Big Rivers", "physicalAddress": {"description": "5 Kintore St", "state": "NT", "postCode": "Katherine, 0850", "displayAddress": "5 Kintore St, Katherine, 0850, NT"}, "postalAddress": {"description": "PO Box 189", "state": "NT", "postCode": "Katherine, 0851", "displayAddress": "PO Box 189, Katherine, 0851, NT"}, "ntgGeographicDefinition": "tba", "preSchool": false, "primarySchool": false, "middleSchool": false, "seniorSchool": false, "telephoneNumber": "(08) 897 38200"}
{"name": "Karama Primary School", "region": "Darwin", "physicalAddress": {"description": "37 Livistona Rd", "state": "NT", "postCode": "Karama, 0812", "displayAddress": "37 Livistona Rd, Karama, 0812, NT"}, "postalAddress": {"description": "PO Box 103", "state": "NT", "postCode": "Karama, 0813", "displayAddress": "PO Box 103, Karama, 0813, NT"}, "ntgGeographicDefinition": "Outer Regional", "preSchool": true, "primarySchool": true, "middleSchool": false, "seniorSchool": false, "telephoneNumber": "(08) 898 37700"}
{"name": "Karama Pre School", "region": "Darwin", "physicalAddress": {"description": "37 Livistona Rd", "state": "NT", "postCode": "Karama", "displayAddress": "37 Livistona Rd, Karama, NT"}, "postalAddress": {"description": null, "state": null, "postCode": ", ", "displayAddress": ", , , "}, "ntgGeographicDefinition": null, "preSchool": true, "primarySchool": false, "middleSchool": false, "seniorSchool": false, "telephoneNumber": "(08) 898 37711"}
{"name": "Kalkaringi Pre School", "region": "Big Rivers", "physicalAddress": {"description": "Whitlam St", "state": "NT", "postCode": "Kalkaringi (Wave hill)", "displayAddress": "Whitlam St, Kalkaringi (Wave hill), NT"}, "postalAddress": {"description": null, "state": null, "postCode": ", ", "displayAddress": ", , , "}, "ntgGeographicDefinition": null, "preSchool": false, "primarySchool": false, "middleSchool": false, "seniorSchool": false, "telephoneNumber": "(08) 8965 1888"}
{"name": "Kalkaringi School", "region": "Big Rivers", "physicalAddress": {"description": "Whitlam st", "state": "NT", "postCode": "Kalkaringi (Wave hill)", "displayAddress": "Whitlam st, Kalkaringi (Wave hill), NT"}, "postalAddress": {"description": "PMB 41", "state": "NT", "postCode": "KATHERINE, 0852", "displayAddress": "PMB 41, KATHERINE, 0852, NT"}, "ntgGeographicDefinition": "Very Remote", "preSchool": true, "primarySchool": true, "middleSchool": true, "seniorSchool": true, "telephoneNumber": "(08) 896 51888"}
{"name": "Jingili Primary School", "region": "Darwin", "physicalAddress": {"description": "17 Rindberg St", "state": "NT", "postCode": "Jingili, 0810", "displayAddress": "17 Rindberg St, Jingili, 0810, NT"}, "postalAddress": {"description": "PO Box 40600", "state": "NT", "postCode": "CASUARINA, 0810", "displayAddress": "PO Box 40600, CASUARINA, 0810, NT"}, "ntgGeographicDefinition": "Outer Regional", "preSchool": true, "primarySchool": true, "middleSchool": false, "seniorSchool": false, "telephoneNumber": "(08) 898 37555"}
{"name": "Jingili Preschool", "region": "Darwin", "physicalAddress": {"description": "10 Jingili Tce", "state": "NT", "postCode": "Jingili", "displayAddress": "10 Jingili Tce, Jingili, NT"}, "postalAddress": {"description": null, "state": null, "postCode": ", ", "displayAddress": ", , , "}, "ntgGeographicDefinition": null, "preSchool": true, "primarySchool": false, "middleSchool": false, "seniorSchool": false, "telephoneNumber": "(08) 8985 3495"}
{"name": "Jabiru Pre School", "region": "Top End", "physicalAddress": {"description": "40 Waterhouse Rd", "state": "NT", "postCode": "Jabiru", "displayAddress": "40 Waterhouse Rd, Jabiru, NT"}, "postalAddress": {"description": null, "state": null, "postCode": ", ", "displayAddress": ", , , "}, "ntgGeographicDefinition": null, "preSchool": true, "primarySchool": false, "middleSchool": false, "seniorSchool": false, "telephoneNumber": "(08) 8938 3333"}
{"name": "Jilkminggan School", "region": "Big Rivers", "physicalAddress": {"description": "N/A", "state": "NT", "postCode": "Jilkminggan (Duck Creek)", "displayAddress": "N/A, Jilkminggan (Duck Creek), NT"}, "postalAddress": {"description": "PO Box 4054", "state": "NT", "postCode": "Mataranka, 0852", "displayAddress": "PO Box 4054, Mataranka, 0852, NT"}, "ntgGeographicDefinition": "Very Remote", "preSchool": true, "primarySchool": true, "middleSchool": true, "seniorSchool": true, "telephoneNumber": "(08) 8975 4896"}
{"name": "Jabiru Area School", "region": "Top End", "physicalAddress": {"description": "40 Waterhouse Rd", "state": "NT", "postCode": "Jabiru", "displayAddress": "40 Waterhouse Rd, Jabiru, NT"}, "postalAddress": {"description": "PO Box  246", "state": "NT", "postCode": "Jabiru, 0886", "displayAddress": "PO Box  246, Jabiru, 0886, NT"}, "ntgGeographicDefinition": "Remote", "preSchool": true, "primarySchool": true, "middleSchool": true, "seniorSchool": true, "telephoneNumber": "(08) 8938 3333"}
{"name": "Humpty Doo Primary School", "region": "Top End", "physicalAddress": {"description": "50 Freds Pass Rd", "state": "NT", "postCode": "Humpty Doo, 0836", "displayAddress": "50 Freds Pass Rd, Humpty Doo, 0836, NT"}, "postalAddress": {"description": "PO Box 46", "state": "NT", "postCode": "HUMPTY DOO, 0836", "displayAddress": "PO Box 46, HUMPTY DOO, 0836, NT"}, "ntgGeographicDefinition": "Outer Regional", "preSchool": true, "primarySchool": true, "middleSchool": false, "seniorSchool": false, "telephoneNumber": "(08) 792 30400"}
{"name": "Ida Standley Pre School", "region": "Central", "physicalAddress": {"description": "15 Parke Cres", "state": "NT", "postCode": "Alice Springs", "displayAddress": "15 Parke Cres, Alice Springs, NT"}, "postalAddress": {"description": null, "state": null, "postCode": ", ", "displayAddress": ", , , "}, "ntgGeographicDefinition": null, "preSchool": false, "primarySchool": false, "middleSchool": false, "seniorSchool": false, "telephoneNumber": "(08) 8952 1040"}
{"name": "Humpty Doo Pre School", "region": "Top End", "physicalAddress": {"description": "50 Freds Pass Rd", "state": "NT", "postCode": "Humpty Doo", "displayAddress": "50 Freds Pass Rd, Humpty Doo, NT"}, "postalAddress": {"description": null, "state": null, "postCode": ", ", "displayAddress": ", , , "}, "ntgGeographicDefinition": null, "preSchool": true, "primarySchool": false, "middleSchool": false, "seniorSchool": false, "telephoneNumber": "(08) 792 30400"}
{"name": "Howard Springs Primary School", "region": "Top End", "physicalAddress": {"description": "295 Whitewood Rd", "state": "NT", "postCode": "Howard Springs, 0835", "displayAddress": "295 Whitewood Rd, Howard Springs, 0835, NT"}, "postalAddress": {"description": "PO Box  171", "state": "NT", "postCode": "HOWARD SPRINGS, 0835", "displayAddress": "PO Box  171, HOWARD SPRINGS, 0835, NT"}, "ntgGeographicDefinition": "Outer Regional", "preSchool": true, "primarySchool": true, "middleSchool": false, "seniorSchool": false, "telephoneNumber": "(08) 898 30000"}
{"name": "Holy Spirit Catholic School", "region": "Darwin", "physicalAddress": {"description": "Gsell Street", "state": "NT", "postCode": "Casuarina", "displayAddress": "Gsell Street, Casuarina, NT"}, "postalAddress": {"description": "PO Box 40030", "state": "NT", "postCode": "Casuarina, 0810", "displayAddress": "PO Box 40030, Casuarina, 0810, NT"}, "ntgGeographicDefinition": "Provincial", "preSchool": false, "primarySchool": true, "middleSchool": false, "seniorSchool": false, "telephoneNumber": "(08) 8927 3411"}
{"name": "Howard Springs Pre School", "region": "Top End", "physicalAddress": {"description": "295 Whitewood Rd", "state": "NT", "postCode": "Howard Springs", "displayAddress": "295 Whitewood Rd, Howard Springs, NT"}, "postalAddress": {"description": null, "state": null, "postCode": ", ", "displayAddress": ", , , "}, "ntgGeographicDefinition": null, "preSchool": true, "primarySchool": false, "middleSchool": false, "seniorSchool": false, "telephoneNumber": "(08) 8983 0000"}
{"name": "Holy Family Catholic School", "region": "Darwin", "physicalAddress": {"description": "Calytrix Road", "state": "NT", "postCode": "Karama", "displayAddress": "Calytrix Road, Karama, NT"}, "postalAddress": {"description": "PO Box 40870", "state": "NT", "postCode": "Casuarina, 0812", "displayAddress": "PO Box 40870, Casuarina, 0812, NT"}, "ntgGeographicDefinition": "Provincial", "preSchool": false, "primarySchool": true, "middleSchool": false, "seniorSchool": false, "telephoneNumber": "(08) 89276188"}
{"name": "Henbury School", "region": "Darwin", "physicalAddress": {"description": "11 Henbury Avenue", "state": "NT", "postCode": "Tiwi, 0810", "displayAddress": "11 Henbury Avenue, Tiwi, 0810, NT"}, "postalAddress": {"description": "11 Henbury Avenue", "state": "NT", "postCode": "Tiwi, 0810", "displayAddress": "11 Henbury Avenue, Tiwi, 0810, NT"}, "ntgGeographicDefinition": "Outer Regional", "preSchool": false, "primarySchool": false, "middleSchool": true, "seniorSchool": true, "telephoneNumber": "(08) 899 77077"}
{"name": "Haileybury Rendall School", "region": "Darwin", "physicalAddress": {"description": "6057 Berrimah Road", "state": "NT", "postCode": "Berrimah", "displayAddress": "6057 Berrimah Road, Berrimah, NT"}, "postalAddress": {"description": "PO Box 241", "state": "NT", "postCode": "Berrimah, 0828", "displayAddress": "PO Box 241, Berrimah, 0828, NT"}, "ntgGeographicDefinition": "Provincial", "preSchool": false, "primarySchool": false, "middleSchool": true, "seniorSchool": true, "telephoneNumber": "(08) 8922 1611"}
{"name": "Harts Range School", "region": "Central", "physicalAddress": {"description": "N/A", "state": "NT", "postCode": "Atitjere (Harts Range)", "displayAddress": "N/A, Atitjere (Harts Range), NT"}, "postalAddress": {"description": "PMB 162", "state": "NT", "postCode": "via Alice Springs, 0871", "displayAddress": "PMB 162, via Alice Springs, 0871, NT"}, "ntgGeographicDefinition": "Very Remote", "preSchool": true, "primarySchool": true, "middleSchool": true, "seniorSchool": false, "telephoneNumber": "(08) 8956 9771"}
{"name": "Haasts Bluff School", "region": "Central", "physicalAddress": {"description": "N/A", "state": "NT", "postCode": "Haasts Bluff (Ikuntji), 0872", "displayAddress": "N/A, Haasts Bluff (Ikuntji), 0872, NT"}, "postalAddress": {"description": "Haasts Bluff", "state": "NT", "postCode": "via Alice Springs, 0872", "displayAddress": "Haasts Bluff, via Alice Springs, 0872, NT"}, "ntgGeographicDefinition": "Very Remote", "preSchool": true, "primarySchool": true, "middleSchool": true, "seniorSchool": false, "telephoneNumber": "(08) 8956 8550"}
{"name": "Gunbalanya Pre School", "region": "Top End", "physicalAddress": {"description": "N/a", "state": "NT", "postCode": "Gunbalanya", "displayAddress": "N/a, Gunbalanya, NT"}, "postalAddress": {"description": null, "state": null, "postCode": ", ", "displayAddress": ", , , "}, "ntgGeographicDefinition": null, "preSchool": false, "primarySchool": false, "middleSchool": false, "seniorSchool": false, "telephoneNumber": "(08) 8979 0181"}
{"name": "Gunbalanya School", "region": "Top End", "physicalAddress": {"description": "N/A", "state": "NT", "postCode": "Gunbalanya", "displayAddress": "N/A, Gunbalanya, NT"}, "postalAddress": {"description": "PMB 66", "state": "NT", "postCode": "Gunbalanya, 0822", "displayAddress": "PMB 66, Gunbalanya, 0822, NT"}, "ntgGeographicDefinition": "Very Remote", "preSchool": true, "primarySchool": true, "middleSchool": true, "seniorSchool": true, "telephoneNumber": "(08) 8979 0181"}
{"name": "Gray Primary School", "region": "Top End", "physicalAddress": {"description": "22 Victoria Drive", "state": "NT", "postCode": "Gray, 0830", "displayAddress": "22 Victoria Drive, Gray, 0830, NT"}, "postalAddress": {"description": "Victoria Drive", "state": "NT", "postCode": "GRAY, 0830", "displayAddress": "Victoria Drive, GRAY, 0830, NT"}, "ntgGeographicDefinition": "Outer Regional", "preSchool": true, "primarySchool": true, "middleSchool": false, "seniorSchool": false, "telephoneNumber": "(08) 8932 1700"}
{"name": "Gray Pre School", "region": "Top End", "physicalAddress": {"description": "22 Victoria Dr", "state": "NT", "postCode": "Gray", "displayAddress": "22 Victoria Dr, Gray, NT"}, "postalAddress": {"description": null, "state": null, "postCode": ", ", "displayAddress": ", , , "}, "ntgGeographicDefinition": null, "preSchool": true, "primarySchool": false, "middleSchool": false, "seniorSchool": false, "telephoneNumber": "(08) 8932 1700"}
{"name": "Good Shepherd Lutheran School", "region": "Top End", "physicalAddress": {"description": "Cnr Emery Ave and Temple Tce", "state": "NT", "postCode": "Palmerston", "displayAddress": "Cnr Emery Ave and Temple Tce, Palmerston, NT"}, "postalAddress": {"description": "PO Box 1146", "state": "NT", "postCode": "Howard Springs, 0831", "displayAddress": "PO Box 1146, Howard Springs, 0831, NT"}, "ntgGeographicDefinition": "Provincial", "preSchool": false, "primarySchool": true, "middleSchool": false, "seniorSchool": false, "telephoneNumber": "(08) 8983 0300"}
{"name": "Girraween Pre School", "region": "Top End", "physicalAddress": {"description": "25 Carruth Rd", "state": "NT", "postCode": "Girraween", "displayAddress": "25 Carruth Rd, Girraween, NT"}, "postalAddress": {"description": null, "state": null, "postCode": ", ", "displayAddress": ", , , "}, "ntgGeographicDefinition": null, "preSchool": true, "primarySchool": false, "middleSchool": false, "seniorSchool": false, "telephoneNumber": "(08) 8983 3300"}
{"name": "Good Shepherd Lutheran College", "region": "Top End", "physicalAddress": {"description": "Cnr Whitewood Rd and Kundook Place", "state": "NT", "postCode": "Howard Springs", "displayAddress": "Cnr Whitewood Rd and Kundook Place, Howard Springs, NT"}, "postalAddress": {"description": "PO Box 1146", "state": "NT", "postCode": "Howard Springs, 0831", "displayAddress": "PO Box 1146, Howard Springs, 0831, NT"}, "ntgGeographicDefinition": "Provincial", "preSchool": true, "primarySchool": true, "middleSchool": true, "seniorSchool": true, "telephoneNumber": "08 89830300"}
{"name": "Good Shepherd - Leanyer Campus", "region": "Darwin", "physicalAddress": {"description": "94 Leanyer Drive", "state": "NT", "postCode": "Leanyer", "displayAddress": "94 Leanyer Drive, Leanyer, NT"}, "postalAddress": {"description": "PO Box 1146", "state": "NT", "postCode": "Howard Springs, 0831", "displayAddress": "PO Box 1146, Howard Springs, 0831, NT"}, "ntgGeographicDefinition": "Provincial", "preSchool": true, "primarySchool": true, "middleSchool": false, "seniorSchool": false, "telephoneNumber": "(08) 8983 0300"}
{"name": "Girraween Primary School", "region": "Top End", "physicalAddress": {"description": "25 Carruth Rd", "state": "NT", "postCode": "Girraween, 0835", "displayAddress": "25 Carruth Rd, Girraween, 0835, NT"}, "postalAddress": {"description": "PO Box 1042", "state": "NT", "postCode": "HOWARD SPRINGS, 0835", "displayAddress": "PO Box 1042, HOWARD SPRINGS, 0835, NT"}, "ntgGeographicDefinition": "Outer Regional", "preSchool": true, "primarySchool": true, "middleSchool": false, "seniorSchool": false, "telephoneNumber": "(08) 8983 3300"}
{"name": "Gillen Primary School", "region": "Central", "physicalAddress": {"description": "55 Milner Rd", "state": "NT", "postCode": "Alice Springs, 0870", "displayAddress": "55 Milner Rd, Alice Springs, 0870, NT"}, "postalAddress": {"description": "PO Box 769", "state": "NT", "postCode": "ALICE SPRINGS, 0871", "displayAddress": "PO Box 769, ALICE SPRINGS, 0871, NT"}, "ntgGeographicDefinition": "Remote", "preSchool": true, "primarySchool": true, "middleSchool": false, "seniorSchool": false, "telephoneNumber": "(08) 895 52155"}
{"name": "Gawa Christian School", "region": "East Arnhem", "physicalAddress": {"description": "Community ID 508", "state": "NT", "postCode": "Gawa", "displayAddress": "Community ID 508, Gawa, NT"}, "postalAddress": {"description": "PMB 257", "state": "NT", "postCode": "Elcho Island via Winnellie, 0822", "displayAddress": "PMB 257, Elcho Island via Winnellie, 0822, NT"}, "ntgGeographicDefinition": "Very Remote ", "preSchool": false, "primarySchool": true, "middleSchool": true, "seniorSchool": true, "telephoneNumber": "8970 5212"}
{"name": "Gillen Pre School", "region": "Central", "physicalAddress": {"description": "12 Newland St", "state": "NT", "postCode": "Alice Springs", "displayAddress": "12 Newland St, Alice Springs, NT"}, "postalAddress": {"description": null, "state": null, "postCode": ", ", "displayAddress": ", , , "}, "ntgGeographicDefinition": null, "preSchool": true, "primarySchool": false, "middleSchool": false, "seniorSchool": false, "telephoneNumber": "(08) 8952 2355"}
{"name": "Gapuwiyak School", "region": "East Arnhem", "physicalAddress": {"description": "N/a", "state": "NT", "postCode": "Gapuwiyak", "displayAddress": "N/a, Gapuwiyak, NT"}, "postalAddress": {"description": "PMB 900", "state": "NT", "postCode": "Via Winnellie, 0822", "displayAddress": "PMB 900, Via Winnellie, 0822, NT"}, "ntgGeographicDefinition": "Very Remote", "preSchool": true, "primarySchool": true, "middleSchool": true, "seniorSchool": true, "telephoneNumber": "(08) 8987 9122"}
{"name": "Gapuwiyak Pre School", "region": "East Arnhem", "physicalAddress": {"description": "N/A", "state": "NT", "postCode": "Gapuwiyak", "displayAddress": "N/A, Gapuwiyak, NT"}, "postalAddress": {"description": null, "state": null, "postCode": ", ", "displayAddress": ", , , "}, "ntgGeographicDefinition": null, "preSchool": false, "primarySchool": false, "middleSchool": false, "seniorSchool": false, "telephoneNumber": "(08) 8987 9122"}
{"name": "Forrest Parade School", "region": "Top End", "physicalAddress": {"description": "120 Flynn Circuit", "state": "NT", "postCode": "Bellamack, 0832", "displayAddress": "120 Flynn Circuit, Bellamack, 0832, NT"}, "postalAddress": {"description": "120 Flynn Circuit", "state": "NT", "postCode": "Bellamack, 0832", "displayAddress": "120 Flynn Circuit, Bellamack, 0832, NT"}, "ntgGeographicDefinition": "Outer Regional", "preSchool": false, "primarySchool": false, "middleSchool": false, "seniorSchool": false, "telephoneNumber": "(08) 899 77111"}
{"name": "Finke School", "region": "Central", "physicalAddress": {"description": "N/A", "state": "NT", "postCode": "Finke", "displayAddress": "N/A, Finke, NT"}, "postalAddress": {"description": "PMB 30", "state": "NT", "postCode": "via Alice Springs, 0871", "displayAddress": "PMB 30, via Alice Springs, 0871, NT"}, "ntgGeographicDefinition": "Very Remote", "preSchool": false, "primarySchool": true, "middleSchool": true, "seniorSchool": false, "telephoneNumber": "(08) 8956 0960"}
{"name": "Families as First Teachers", "region": "Darwin", "physicalAddress": {"description": "Mitchell St", "state": "NT", "postCode": "Darwin, 0800", "displayAddress": "Mitchell St, Darwin, 0800, NT"}, "postalAddress": {"description": "GPO Box 4821", "state": "NT", "postCode": "Darwin, 0801", "displayAddress": "GPO Box 4821, Darwin, 0801, NT"}, "ntgGeographicDefinition": null, "preSchool": true, "primarySchool": true, "middleSchool": false, "seniorSchool": false, "telephoneNumber": "(08) 899 93550"}
{"name": "The Essington International School Darwin", "region": "Darwin", "physicalAddress": {"description": "22 Chapman Rd", "state": "NT", "postCode": "Rapid Creek", "displayAddress": "22 Chapman Rd, Rapid Creek, NT"}, "postalAddress": {"description": "PO Box 42321", "state": "NT", "postCode": "Casuarina, 0811", "displayAddress": "PO Box 42321, Casuarina, 0811, NT"}, "ntgGeographicDefinition": "Provincial", "preSchool": true, "primarySchool": true, "middleSchool": true, "seniorSchool": true, "telephoneNumber": "(08) 8985 0100"}
{"name": "Epenarra School", "region": "Barkly", "physicalAddress": {"description": "N/A", "state": "NT", "postCode": "Wutunugurra (Epenarra)", "displayAddress": "N/A, Wutunugurra (Epenarra), NT"}, "postalAddress": {"description": "PMB 270", "state": "NT", "postCode": "via Alice Springs, 0861", "displayAddress": "PMB 270, via Alice Springs, 0861, NT"}, "ntgGeographicDefinition": "Very Remote", "preSchool": true, "primarySchool": true, "middleSchool": true, "seniorSchool": true, "telephoneNumber": "(08) 8964 1512"}
{"name": "Elliott School", "region": "Barkly", "physicalAddress": {"description": "91 Bray St", "state": "NT", "postCode": "Elliott", "displayAddress": "91 Bray St, Elliott, NT"}, "postalAddress": {"description": "C/- Elliott Post Office", "state": "NT", "postCode": "Elliott, 0862", "displayAddress": "C/- Elliott Post Office, Elliott, 0862, NT"}, "ntgGeographicDefinition": "Very Remote", "preSchool": true, "primarySchool": true, "middleSchool": true, "seniorSchool": false, "telephoneNumber": "(08) 8969 2122"}
{"name": "Durack Primary School", "region": "Top End", "physicalAddress": {"description": "50 Woodlake Bvd", "state": "NT", "postCode": "Durack, 0830", "displayAddress": "50 Woodlake Bvd, Durack, 0830, NT"}, "postalAddress": {"description": "PO Box  225", "state": "NT", "postCode": "PALMERSTON, 0830", "displayAddress": "PO Box  225, PALMERSTON, 0830, NT"}, "ntgGeographicDefinition": "Outer Regional", "preSchool": true, "primarySchool": true, "middleSchool": false, "seniorSchool": false, "telephoneNumber": "(08) 899 77555"}
{"name": "Durack Pre School", "region": "Top End", "physicalAddress": {"description": "50 Woodlake Blvd", "state": "NT", "postCode": "Durack", "displayAddress": "50 Woodlake Blvd, Durack, NT"}, "postalAddress": {"description": null, "state": null, "postCode": ", ", "displayAddress": ", , , "}, "ntgGeographicDefinition": null, "preSchool": true, "primarySchool": false, "middleSchool": false, "seniorSchool": false, "telephoneNumber": "(08) 899 77555"}
{"name": "Dundee Beach School", "region": "Top End", "physicalAddress": {"description": "500 Namarada Dr", "state": "NT", "postCode": "Dundee Beach", "displayAddress": "500 Namarada Dr, Dundee Beach, NT"}, "postalAddress": {"description": "PO Box 145", "state": "NT", "postCode": "Dundee Beach, 0840", "displayAddress": "PO Box 145, Dundee Beach, 0840, NT"}, "ntgGeographicDefinition": "Remote", "preSchool": true, "primarySchool": true, "middleSchool": false, "seniorSchool": false, "telephoneNumber": "(08) 8978 2212"}
{"name": "Driver Primary School", "region": "Top End", "physicalAddress": {"description": "37 Driver Ave", "state": "NT", "postCode": "Driver, 0830", "displayAddress": "37 Driver Ave, Driver, 0830, NT"}, "postalAddress": {"description": "PO Box  33", "state": "NT", "postCode": "PALMERSTON, 0831", "displayAddress": "PO Box  33, PALMERSTON, 0831, NT"}, "ntgGeographicDefinition": "Outer Regional", "preSchool": true, "primarySchool": true, "middleSchool": false, "seniorSchool": false, "telephoneNumber": "(08) 893 59000"}
{"name": "Driver Pre School", "region": "Top End", "physicalAddress": {"description": "37 Driver Ave", "state": "NT", "postCode": "Driver", "displayAddress": "37 Driver Ave, Driver, NT"}, "postalAddress": {"description": null, "state": null, "postCode": ", ", "displayAddress": ", , , "}, "ntgGeographicDefinition": null, "preSchool": true, "primarySchool": false, "middleSchool": false, "seniorSchool": false, "telephoneNumber": "(08) 893 59055"}
{"name": "Dripstone Middle School", "region": "Darwin", "physicalAddress": {"description": "10 Delamere St", "state": "NT", "postCode": "Tiwi, 0810", "displayAddress": "10 Delamere St, Tiwi, 0810, NT"}, "postalAddress": {"description": "PO Box  41370", "state": "NT", "postCode": "CASUARINA, 0811", "displayAddress": "PO Box  41370, CASUARINA, 0811, NT"}, "ntgGeographicDefinition": "Outer Regional", "preSchool": false, "primarySchool": false, "middleSchool": true, "seniorSchool": false, "telephoneNumber": "(08) 898 37777"}
{"name": "Braitling Primary School", "region": "Central", "physicalAddress": {"description": "80 Head St", "state": "NT", "postCode": "Alice Springs, 0870", "displayAddress": "80 Head St, Alice Springs, 0870, NT"}, "postalAddress": {"description": "PO Box  1669", "state": "NT", "postCode": "ALICE SPRINGS, 0871", "displayAddress": "PO Box  1669, ALICE SPRINGS, 0871, NT"}, "ntgGeographicDefinition": "Remote", "preSchool": true, "primarySchool": true, "middleSchool": false, "seniorSchool": false, "telephoneNumber": "(08) 895 85111"}
{"name": "Braitling Pre School", "region": "Central", "physicalAddress": {"description": "80 Head St", "state": "NT", "postCode": "Alice Springs", "displayAddress": "80 Head St, Alice Springs, NT"}, "postalAddress": {"description": null, "state": null, "postCode": ", ", "displayAddress": ", , , "}, "ntgGeographicDefinition": null, "preSchool": true, "primarySchool": false, "middleSchool": false, "seniorSchool": false, "telephoneNumber": "(08) 8985 8511"}
{"name": "Bradshaw Primary School", "region": "Central", "physicalAddress": {"description": "23 Adamson Ave", "state": "NT", "postCode": "Alice Springs, 0870", "displayAddress": "23 Adamson Ave, Alice Springs, 0870, NT"}, "postalAddress": {"description": "PO Box 1744", "state": "NT", "postCode": "ALICE SPRINGS, 0871", "displayAddress": "PO Box 1744, ALICE SPRINGS, 0871, NT"}, "ntgGeographicDefinition": "Remote", "preSchool": true, "primarySchool": true, "middleSchool": false, "seniorSchool": false, "telephoneNumber": "(08) 895 52100"}
{"name": "Bradshaw Pre School", "region": "Central", "physicalAddress": {"description": "23 Adamson Ave", "state": "NT", "postCode": "Alice Springs", "displayAddress": "23 Adamson Ave, Alice Springs, NT"}, "postalAddress": {"description": null, "state": null, "postCode": ", ", "displayAddress": ", , , "}, "ntgGeographicDefinition": null, "preSchool": true, "primarySchool": false, "middleSchool": false, "seniorSchool": false, "telephoneNumber": "(08) 895 52100"}
{"name": "Borroloola Pre School", "region": "Big Rivers", "physicalAddress": {"description": "321 Robinson Road", "state": "NT", "postCode": "Borroloola", "displayAddress": "321 Robinson Road, Borroloola, NT"}, "postalAddress": {"description": null, "state": null, "postCode": ", ", "displayAddress": ", , , "}, "ntgGeographicDefinition": null, "preSchool": false, "primarySchool": false, "middleSchool": false, "seniorSchool": false, "telephoneNumber": "(08) 89 758780"}
{"name": "Borroloola School", "region": "Big Rivers", "physicalAddress": {"description": "321 Robinson Rd", "state": "NT", "postCode": "Borroloola, 0854", "displayAddress": "321 Robinson Rd, Borroloola, 0854, NT"}, "postalAddress": {"description": "PMB 5", "state": "NT", "postCode": "Borroloola, 0854", "displayAddress": "PMB 5, Borroloola, 0854, NT"}, "ntgGeographicDefinition": "Very Remote", "preSchool": true, "primarySchool": true, "middleSchool": true, "seniorSchool": true, "telephoneNumber": "(08) 896 51800"}
{"name": "Bonya School", "region": "Central", "physicalAddress": {"description": "Community ID 26", "state": "NT", "postCode": "Orrtipa-Thurra (Bonya)", "displayAddress": "Community ID 26, Orrtipa-Thurra (Bonya), NT"}, "postalAddress": {"description": "PMB 69", "state": "NT", "postCode": "via Alice Springs, 0872", "displayAddress": "PMB 69, via Alice Springs, 0872, NT"}, "ntgGeographicDefinition": "Very Remote", "preSchool": true, "primarySchool": true, "middleSchool": true, "seniorSchool": false, "telephoneNumber": "(08) 8956 6352"}
{"name": "Berry Springs Primary School", "region": "Top End", "physicalAddress": {"description": "1150 Cox Peninsula Rd", "state": "NT", "postCode": "Berry Springs, 0838", "displayAddress": "1150 Cox Peninsula Rd, Berry Springs, 0838, NT"}, "postalAddress": {"description": "PO Box 135", "state": "NT", "postCode": "Berry Springs, 0838", "displayAddress": "PO Box 135, Berry Springs, 0838, NT"}, "ntgGeographicDefinition": "Outer Regional", "preSchool": true, "primarySchool": true, "middleSchool": false, "seniorSchool": false, "telephoneNumber": "(08) 8988 6006"}
{"name": "Berry Springs Pre School", "region": "Top End", "physicalAddress": {"description": "1150 Cox Peninsula Rd", "state": "NT", "postCode": "Berry Springs", "displayAddress": "1150 Cox Peninsula Rd, Berry Springs, NT"}, "postalAddress": {"description": null, "state": null, "postCode": ", ", "displayAddress": ", , , "}, "ntgGeographicDefinition": null, "preSchool": true, "primarySchool": false, "middleSchool": false, "seniorSchool": false, "telephoneNumber": "(08) 8988 6006"}
{"name": "Belyuen School", "region": "Top End", "physicalAddress": {"description": "N/A", "state": "NT", "postCode": "Belyuen", "displayAddress": "N/A, Belyuen, NT"}, "postalAddress": {"description": "PMB 2", "state": "NT", "postCode": "GPO Darwin, 0801", "displayAddress": "PMB 2, GPO Darwin, 0801, NT"}, "ntgGeographicDefinition": "Remote", "preSchool": true, "primarySchool": true, "middleSchool": false, "seniorSchool": false, "telephoneNumber": "(08) 8978 5085"}
{"name": "Bees Creek Primary School", "region": "Top End", "physicalAddress": {"description": "20 Sattler Cres", "state": "NT", "postCode": "Freds Pass", "displayAddress": "20 Sattler Cres, Freds Pass, NT"}, "postalAddress": {"description": "PO Box 1500", "state": "NT", "postCode": "Coolalinga, 0839", "displayAddress": "PO Box 1500, Coolalinga, 0839, NT"}, "ntgGeographicDefinition": "Outer Regional", "preSchool": true, "primarySchool": true, "middleSchool": false, "seniorSchool": false, "telephoneNumber": "(08) 8983 3222"}
{"name": "Bees Creek Pre School", "region": "Top End", "physicalAddress": {"description": "20 Sattler Cres", "state": "NT", "postCode": "Freds Pass", "displayAddress": "20 Sattler Cres, Freds Pass, NT"}, "postalAddress": {"description": null, "state": null, "postCode": ", ", "displayAddress": ", , , "}, "ntgGeographicDefinition": null, "preSchool": true, "primarySchool": false, "middleSchool": false, "seniorSchool": false, "telephoneNumber": "(08) 8983 3222"}
{"name": "Batchelor Pre School", "region": "Top End", "physicalAddress": {"description": "71 Kirra Cres", "state": "NT", "postCode": "Batchelor", "displayAddress": "71 Kirra Cres, Batchelor, NT"}, "postalAddress": {"description": null, "state": null, "postCode": ", ", "displayAddress": ", , , "}, "ntgGeographicDefinition": null, "preSchool": true, "primarySchool": false, "middleSchool": false, "seniorSchool": false, "telephoneNumber": "(08) 8976 0077"}
{"name": "Barunga School", "region": "Big Rivers", "physicalAddress": {"description": "N/A", "state": "NT", "postCode": "Barunga  (Bamyili)", "displayAddress": "N/A, Barunga  (Bamyili), NT"}, "postalAddress": {"description": "PMB 117", "state": "NT", "postCode": "via Katherine, 0851", "displayAddress": "PMB 117, via Katherine, 0851, NT"}, "ntgGeographicDefinition": "Very Remote", "preSchool": true, "primarySchool": true, "middleSchool": true, "seniorSchool": true, "telephoneNumber": "(08) 8975 4502"}
{"name": "Batchelor Area School", "region": "Top End", "physicalAddress": {"description": "71 Kirra Cres", "state": "NT", "postCode": "Batchelor, 0845", "displayAddress": "71 Kirra Cres, Batchelor, 0845, NT"}, "postalAddress": {"description": "c/-", "state": "NT", "postCode": "Batchelor Post Office, 0845", "displayAddress": "c/-, Batchelor Post Office, 0845, NT"}, "ntgGeographicDefinition": "Remote", "preSchool": true, "primarySchool": true, "middleSchool": true, "seniorSchool": false, "telephoneNumber": "(08) 8976 0077"}
{"name": "Baniyala Garrangali School", "region": "East Arnhem", "physicalAddress": {"description": "Yilpara Community", "state": "NT", "postCode": "Yirrkala, 0880", "displayAddress": "Yilpara Community, Yirrkala, 0880, NT"}, "postalAddress": {"description": "PO Box 1496", "state": "NT", "postCode": "NHULUNBUY, 0881", "displayAddress": "PO Box 1496, NHULUNBUY, 0881, NT"}, "ntgGeographicDefinition": "Very Remote", "preSchool": true, "primarySchool": true, "middleSchool": true, "seniorSchool": true, "telephoneNumber": "(08) 8987 9114"}
{"name": "Australian International Islamic College", "region": "n/a", "physicalAddress": {"description": "33 Bowerlee Road", "state": "NT", "postCode": "Berrimah NT 0828", "displayAddress": "33 Bowerlee Road, Berrimah NT 0828, NT"}, "postalAddress": {"description": "25 Bowerlee Road", "state": "NT", "postCode": "Berrimah, 0828", "displayAddress": "25 Bowerlee Road, Berrimah, 0828, NT"}, "ntgGeographicDefinition": "n/a", "preSchool": false, "primarySchool": true, "middleSchool": false, "seniorSchool": false, "telephoneNumber": "(03) 33721400"}
{"name": "Arlparra School", "region": "Barkly", "physicalAddress": {"description": null, "state": "NT", "postCode": "Arlparra Community, Utopia", "displayAddress": ", Arlparra Community, Utopia, NT"}, "postalAddress": {"description": "PMB 18", "state": "NT", "postCode": "via ALICE SPRINGS, 0872", "displayAddress": "PMB 18, via ALICE SPRINGS, 0872, NT"}, "ntgGeographicDefinition": "Very Remote", "preSchool": true, "primarySchool": true, "middleSchool": true, "seniorSchool": true, "telephoneNumber": "(08) 8956 9178"}
{"name": "Bakewell Pre School", "region": "Top End", "physicalAddress": {"description": "5 Hutchison Tce", "state": "NT", "postCode": "Bakewell, 0832", "displayAddress": "5 Hutchison Tce, Bakewell, 0832, NT"}, "postalAddress": {"description": "tba", "state": null, "postCode": "tba, 0832", "displayAddress": "tba, tba, 0832, "}, "ntgGeographicDefinition": null, "preSchool": true, "primarySchool": false, "middleSchool": false, "seniorSchool": false, "telephoneNumber": "(08) 899 77400"}
{"name": "Bakewell Primary School", "region": "Top End", "physicalAddress": {"description": "1 Forrest Parade", "state": "NT", "postCode": "Bakewell, 0832", "displayAddress": "1 Forrest Parade, Bakewell, 0832, NT"}, "postalAddress": {"description": "PO Box 1300", "state": "NT", "postCode": "PALMERSTON, 0831", "displayAddress": "PO Box 1300, PALMERSTON, 0831, NT"}, "ntgGeographicDefinition": "Outer Regional", "preSchool": true, "primarySchool": true, "middleSchool": false, "seniorSchool": false, "telephoneNumber": "(08) 899 77400"}
{"name": "Areyonga School", "region": "Central", "physicalAddress": {"description": "wsw of Hermannsburg, 224km from Alice Springs", "state": "NT", "postCode": "Areyonga", "displayAddress": "wsw of Hermannsburg, 224km from Alice Springs, Areyonga, NT"}, "postalAddress": {"description": "Areyonga", "state": "NT", "postCode": "via Alice Springs, 0872", "displayAddress": "Areyonga, via Alice Springs, 0872, NT"}, "ntgGeographicDefinition": "Very Remote", "preSchool": false, "primarySchool": true, "middleSchool": true, "seniorSchool": false, "telephoneNumber": "(08) 8956 7303"}
{"name": "Araluen Christian School", "region": "Central", "physicalAddress": {"description": "10 Blain St", "state": "NT", "postCode": "Alice Springs", "displayAddress": "10 Blain St, Alice Springs, NT"}, "postalAddress": {"description": "10 Blain Street", "state": "NT", "postCode": "Alice Springs, 0870", "displayAddress": "10 Blain Street, Alice Springs, 0870, NT"}, "ntgGeographicDefinition": "Remote", "preSchool": false, "primarySchool": true, "middleSchool": true, "seniorSchool": false, "telephoneNumber": "(08) 8955 3300"}
{"name": "Anula Primary School", "region": "Darwin", "physicalAddress": {"description": "73 Yanyula Dr", "state": "NT", "postCode": "Anula, 0812", "displayAddress": "73 Yanyula Dr, Anula, 0812, NT"}, "postalAddress": {"description": "Yanyula Drive", "state": "NT", "postCode": "ANULA, 0812", "displayAddress": "Yanyula Drive, ANULA, 0812, NT"}, "ntgGeographicDefinition": "Outer Regional", "preSchool": true, "primarySchool": true, "middleSchool": false, "seniorSchool": false, "telephoneNumber": "(08) 899 77500"}
{"name": "Anula Pre School", "region": "Darwin", "physicalAddress": {"description": "73 Yanyula Dr", "state": "NT", "postCode": "Anula", "displayAddress": "73 Yanyula Dr, Anula, NT"}, "postalAddress": {"description": null, "state": null, "postCode": ", ", "displayAddress": ", , , "}, "ntgGeographicDefinition": null, "preSchool": true, "primarySchool": false, "middleSchool": false, "seniorSchool": false, "telephoneNumber": "(08) 899 77500"}
{"name": "Angurugu Pre School", "region": "East Arnhem", "physicalAddress": {"description": "N/A", "state": "NT", "postCode": "Angurugu", "displayAddress": "N/A, Angurugu, NT"}, "postalAddress": {"description": null, "state": null, "postCode": ", ", "displayAddress": ", , , "}, "ntgGeographicDefinition": null, "preSchool": false, "primarySchool": false, "middleSchool": false, "seniorSchool": false, "telephoneNumber": "(08) 89876255"}
{"name": "Angurugu School", "region": "East Arnhem", "physicalAddress": {"description": "N/A", "state": "NT", "postCode": "Angurugu", "displayAddress": "N/A, Angurugu, NT"}, "postalAddress": {"description": "PO Box 40", "state": "NT", "postCode": "Alyangula, Groote Eylandt, 0885", "displayAddress": "PO Box 40, Alyangula, Groote Eylandt, 0885, NT"}, "ntgGeographicDefinition": "Very Remote", "preSchool": true, "primarySchool": true, "middleSchool": true, "seniorSchool": true, "telephoneNumber": "(08) 8987 6355"}
{"name": "Amoonguna School", "region": "Central", "physicalAddress": {"description": "N/A", "state": "NT", "postCode": "Amoonguna", "displayAddress": "N/A, Amoonguna, NT"}, "postalAddress": {"description": "PO Box  2529,", "state": "NT", "postCode": "Alice Springs, 0871", "displayAddress": "PO Box  2529,, Alice Springs, 0871, NT"}, "ntgGeographicDefinition": "Remote", "preSchool": false, "primarySchool": true, "middleSchool": false, "seniorSchool": false, "telephoneNumber": "(08) 8952 3402"}
{"name": "Ampilatwatja School", "region": "Barkly", "physicalAddress": {"description": "N/A", "state": "NT", "postCode": "Ampilatwatja (Ammaroo)", "displayAddress": "N/A, Ampilatwatja (Ammaroo), NT"}, "postalAddress": {"description": null, "state": "NT", "postCode": "PMB 84, Alice Springs, 0872", "displayAddress": ", PMB 84, Alice Springs, 0872, NT"}, "ntgGeographicDefinition": "Very Remote", "preSchool": true, "primarySchool": true, "middleSchool": true, "seniorSchool": true, "telephoneNumber": "(08) 8956 9265"}
{"name": "Amanbidji School", "region": "Big Rivers", "physicalAddress": {"description": "N/A", "state": "NT", "postCode": "Amanbidgi (Kildirk)", "displayAddress": "N/A, Amanbidgi (Kildirk), NT"}, "postalAddress": {"description": "PMB 16", "state": "NT", "postCode": "via Katherine, 0851", "displayAddress": "PMB 16, via Katherine, 0851, NT"}, "ntgGeographicDefinition": "Very Remote", "preSchool": true, "primarySchool": true, "middleSchool": true, "seniorSchool": false, "telephoneNumber": "(08) 9168 7380"}
{"name": "Alyarrmandumanja Umbakumba School", "region": "East Arnhem", "physicalAddress": {"description": "N/A", "state": "NT", "postCode": "Umbakumba", "displayAddress": "N/A, Umbakumba, NT"}, "postalAddress": {"description": "PO Box 698", "state": "NT", "postCode": "Alyangula, 0885", "displayAddress": "PO Box 698, Alyangula, 0885, NT"}, "ntgGeographicDefinition": "Very Remote", "preSchool": true, "primarySchool": true, "middleSchool": true, "seniorSchool": true, "telephoneNumber": "(08) 8987 6793"}
{"name": "Alyangula Pre School", "region": "East Arnhem", "physicalAddress": {"description": "Cnr Flinders St & Ayawarra Cr", "state": "NT", "postCode": "Alyangula", "displayAddress": "Cnr Flinders St & Ayawarra Cr, Alyangula, NT"}, "postalAddress": {"description": null, "state": null, "postCode": ", ", "displayAddress": ", , , "}, "ntgGeographicDefinition": null, "preSchool": true, "primarySchool": false, "middleSchool": false, "seniorSchool": false, "telephoneNumber": "(08) 8987 6366"}
{"name": "Alpurrurulam School", "region": "Barkly", "physicalAddress": {"description": "N/A", "state": "NT", "postCode": "Alpurrurulam (Lake Nash)", "displayAddress": "N/A, Alpurrurulam (Lake Nash), NT"}, "postalAddress": {"description": "PMB 46", "state": "QLD", "postCode": "Mt Isa, 4825", "displayAddress": "PMB 46, Mt Isa, 4825, QLD"}, "ntgGeographicDefinition": "Very Remote", "preSchool": true, "primarySchool": true, "middleSchool": true, "seniorSchool": true, "telephoneNumber": "(07) 4748 4887"}
{"name": "Alice Springs Steiner School", "region": "Central", "physicalAddress": {"description": "Lot 9523 Ragonesi Rd", "state": "NT", "postCode": "Alice Springs, 0870", "displayAddress": "Lot 9523 Ragonesi Rd, Alice Springs, 0870, NT"}, "postalAddress": {"description": "PO Box 2736", "state": "NT", "postCode": "Alice Springs, 0871", "displayAddress": "PO Box 2736, Alice Springs, 0871, NT"}, "ntgGeographicDefinition": "Remote", "preSchool": true, "primarySchool": true, "middleSchool": false, "seniorSchool": false, "telephoneNumber": "(08) 8952 3897"}
{"name": "Alice Springs Language Centre", "region": "Central", "physicalAddress": {"description": "Milner Road", "state": "NT", "postCode": "Alice SPrings, 0870", "displayAddress": "Milner Road, Alice SPrings, 0870, NT"}, "postalAddress": {"description": "PO Box 9045", "state": "NT", "postCode": "Alice Springs, 0871", "displayAddress": "PO Box 9045, Alice Springs, 0871, NT"}, "ntgGeographicDefinition": "Remote", "preSchool": false, "primarySchool": false, "middleSchool": false, "seniorSchool": false, "telephoneNumber": "(08) 895 52366"}
{"name": "Alekarenge School", "region": "Barkly", "physicalAddress": {"description": "N/A", "state": "NT", "postCode": "Ali Curung (Warrabri)", "displayAddress": "N/A, Ali Curung (Warrabri), NT"}, "postalAddress": {"description": "LMB 161", "state": "NT", "postCode": "via Alice Springs, 0872", "displayAddress": "LMB 161, via Alice Springs, 0872, NT"}, "ntgGeographicDefinition": "Very Remote", "preSchool": true, "primarySchool": true, "middleSchool": true, "seniorSchool": true, "telephoneNumber": "(08) 8964 1957"}
{"name": "Alice Springs School Of The Air", "region": "Central", "physicalAddress": {"description": "80 Head St", "state": "NT", "postCode": "Alice Springs, 0870", "displayAddress": "80 Head St, Alice Springs, 0870, NT"}, "postalAddress": {"description": "PO Box 1220", "state": "NT", "postCode": "Alice Springs, 0871", "displayAddress": "PO Box 1220, Alice Springs, 0871, NT"}, "ntgGeographicDefinition": "Remote", "preSchool": true, "primarySchool": true, "middleSchool": true, "seniorSchool": false, "telephoneNumber": "(08) 8951 6800"}
{"name": "Alyangula Area School", "region": "East Arnhem", "physicalAddress": {"description": "Cnr Flinders St & Ayawarra Cr", "state": "NT", "postCode": "Alyangula", "displayAddress": "Cnr Flinders St & Ayawarra Cr, Alyangula, NT"}, "postalAddress": {"description": "PMB 3", "state": "NT", "postCode": "Alyangula, Groote Eylandt, 0885", "displayAddress": "PMB 3, Alyangula, Groote Eylandt, 0885, NT"}, "ntgGeographicDefinition": "Very Remote", "preSchool": true, "primarySchool": true, "middleSchool": true, "seniorSchool": true, "telephoneNumber": "(08) 8987 6366"}
{"name": "Alcoota School", "region": "Central", "physicalAddress": {"description": "N/A", "state": "NT", "postCode": "Engawala (Alcoota Stn)", "displayAddress": "N/A, Engawala (Alcoota Stn), NT"}, "postalAddress": {"description": "PMB 129", "state": "NT", "postCode": "via Alice Springs, 0872", "displayAddress": "PMB 129, via Alice Springs, 0872, NT"}, "ntgGeographicDefinition": "Very Remote Australia", "preSchool": true, "primarySchool": true, "middleSchool": true, "seniorSchool": true, "telephoneNumber": "(08) 8956 9977"}
{"name": "Alawa Pre School", "region": "Darwin", "physicalAddress": {"description": "27 Pett St", "state": "NT", "postCode": "Alawa", "displayAddress": "27 Pett St, Alawa, NT"}, "postalAddress": {"description": null, "state": null, "postCode": ", ", "displayAddress": ", , , "}, "ntgGeographicDefinition": null, "preSchool": true, "primarySchool": false, "middleSchool": false, "seniorSchool": false, "telephoneNumber": "(08) 899 77666"}
{"name": "Alawa Primary School", "region": "Darwin", "physicalAddress": {"description": "27 Pett Street", "state": "NT", "postCode": "Alawa, 0810", "displayAddress": "27 Pett Street, Alawa, 0810, NT"}, "postalAddress": {"description": "PO Box 40446", "state": "NT", "postCode": "Casuarina, 0811", "displayAddress": "PO Box 40446, Casuarina, 0811, NT"}, "ntgGeographicDefinition": "Outer Regional", "preSchool": true, "primarySchool": true, "middleSchool": false, "seniorSchool": false, "telephoneNumber": "(08) 899 77666"}
{"name": "Adelaide River School", "region": "Top End", "physicalAddress": {"description": "31 Memorial Tce", "state": "NT", "postCode": "Adelaide River, 0846", "displayAddress": "31 Memorial Tce, Adelaide River, 0846, NT"}, "postalAddress": {"description": "C/- Post Office", "state": "NT", "postCode": "Adelaide River, 0846", "displayAddress": "C/- Post Office, Adelaide River, 0846, NT"}, "ntgGeographicDefinition": "Remote", "preSchool": true, "primarySchool": true, "middleSchool": false, "seniorSchool": false, "telephoneNumber": "(08) 8976 7034"}
{"name": "Acacia Hill School", "region": "Central", "physicalAddress": {"description": "80 Spearwood Rd", "state": "NT", "postCode": "Alice Springs, 0870", "displayAddress": "80 Spearwood Rd, Alice Springs, 0870, NT"}, "postalAddress": {"description": "PO Box 435", "state": "NT", "postCode": "ALICE SPRINGS, 0871", "displayAddress": "PO Box 435, ALICE SPRINGS, 0871, NT"}, "ntgGeographicDefinition": "Remote Australia", "preSchool": true, "primarySchool": true, "middleSchool": true, "seniorSchool": true, "telephoneNumber": "(08) 895 52222"}
